{
"type": "FeatureCollection",
"name": "KT_Cong",
"crs": { "type": "name", "properties": { "name": "urn:ogc:def:crs:OGC:1.3:CRS84" } },
"features": [
{ "type": "Feature", "properties": { "title": "Cống tiêu luồn", "X": 621911.0, "Y": 1257830.0, "Vitri": "K22+071", "Khaudo": "2D100", "CTday_m": null, "Qtk_m3s": null, "Htk_TL": null, "Htk_HL": null, "Ghichu": null, "Chucnang": "Cống tiêu luồn", "DT_tuoi_tk": null, "DT_tieu_tk": null }, "geometry": { "type": "Point", "coordinates": [ 106.117332868541993, 11.376414829266903, 16.178574807010591 ] } },
{ "type": "Feature", "properties": { "title": "Cống tiêu luồn", "X": 621274.0, "Y": 1259070.0, "Vitri": "K23+447", "Khaudo": "4D150", "CTday_m": null, "Qtk_m3s": null, "Htk_TL": null, "Htk_HL": null, "Ghichu": null, "Chucnang": "Cống tiêu luồn", "DT_tuoi_tk": null, "DT_tieu_tk": null }, "geometry": { "type": "Point", "coordinates": [ 106.111538263719567, 11.387564636031145, 0.0 ] } },
{ "type": "Feature", "properties": { "title": "Cống vượt cấp", "X": 621135.0, "Y": 1259320.0, "Vitri": "K23+745", "Khaudo": "D40", "CTday_m": null, "Qtk_m3s": null, "Htk_TL": null, "Htk_HL": null, "Ghichu": "Bờ hữu", "Chucnang": null, "DT_tuoi_tk": null, "DT_tieu_tk": null }, "geometry": { "type": "Point", "coordinates": [ 106.110268180166571, 11.389871097107578, 0.0 ] } },
{ "type": "Feature", "properties": { "title": "Cống đầu kênh TN2", "X": 620758.0, "Y": 1260020.0, "Vitri": "K24+491", "Khaudo": "D80", "CTday_m": "13,64", "Qtk_m3s": "0,206", "Htk_TL": "14,71", "Htk_HL": "14,57", "Ghichu": "Bờ hữu", "Chucnang": "Cống lấy nước vào kênh TN2", "DT_tuoi_tk": null, "DT_tieu_tk": null }, "geometry": { "type": "Point", "coordinates": [ 106.106842385685908, 11.39623480251716, 0.0 ] } },
{ "type": "Feature", "properties": { "title": "Cửa số 4 - Đường ống cầu máng", "X": 620074.0, "Y": 1260170.0, "Vitri": null, "Khaudo": "D200", "CTday_m": null, "Qtk_m3s": null, "Htk_TL": null, "Htk_HL": null, "Ghichu": "Bờ tả", "Chucnang": null, "DT_tuoi_tk": null, "DT_tieu_tk": null }, "geometry": { "type": "Point", "coordinates": [ 106.100580664400027, 11.397615216666395, 0.0 ] } },
{ "type": "Feature", "properties": { "title": "Cửa số 5 - Đường ống cầu máng", "X": 620078.0, "Y": 1260190.0, "Vitri": null, "Khaudo": "D200", "CTday_m": null, "Qtk_m3s": null, "Htk_TL": null, "Htk_HL": null, "Ghichu": "Bờ hữu", "Chucnang": null, "DT_tuoi_tk": null, "DT_tieu_tk": null }, "geometry": { "type": "Point", "coordinates": [ 106.100609504537914, 11.397811436912185, 0.0 ] } },
{ "type": "Feature", "properties": { "title": "Cống điều tiết cầu máng K25+275", "X": 619940.0, "Y": 1260210.0, "Vitri": "K25+275", "Khaudo": "3x(2,5x3,3)m", "CTday_m": "11,53", "Qtk_m3s": "35,22", "Htk_TL": "14,66", "Htk_HL": "14,46", "Ghichu": null, "Chucnang": "Điều tiết cấp nước từ K21+691 đến K25+255", "DT_tuoi_tk": null, "DT_tieu_tk": null }, "geometry": { "type": "Point", "coordinates": [ 106.099347809062891, 11.397998137114746, 0.0 ] } },
{ "type": "Feature", "properties": { "title": "Cống đầu kênh TN4B", "X": 618293.0, "Y": 1261590.0, "Vitri": "K27+512", "Khaudo": "D80", "CTday_m": "12,91", "Qtk_m3s": "0,303", "Htk_TL": "14,37", "Htk_HL": "14,05", "Ghichu": "Bờ hữu", "Chucnang": null, "DT_tuoi_tk": "200ha", "DT_tieu_tk": null }, "geometry": { "type": "Point", "coordinates": [ 106.084299650614412, 11.410492236032756, 0.0 ] } },
{ "type": "Feature", "properties": { "title": "Cống tiêu luồn", "X": 618162.0, "Y": 1261720.0, "Vitri": "K27+701", "Khaudo": "D150", "CTday_m": null, "Qtk_m3s": null, "Htk_TL": null, "Htk_HL": null, "Ghichu": null, "Chucnang": "Cống tiêu luồn", "DT_tuoi_tk": null, "DT_tieu_tk": null }, "geometry": { "type": "Point", "coordinates": [ 106.0831037801523, 11.411690389885312, 0.0 ] } },
{ "type": "Feature", "properties": { "title": "Cống đầu kênh TN4A", "X": 616702.0, "Y": 1261900.0, "Vitri": "K29+202", "Khaudo": "D100", "CTday_m": null, "Qtk_m3s": "0,303", "Htk_TL": "14,32", "Htk_HL": "14,04", "Ghichu": "Bờ hữu", "Chucnang": "Cống lấy nước đầu kênh TN4A", "DT_tuoi_tk": "297ha", "DT_tieu_tk": null }, "geometry": { "type": "Point", "coordinates": [ 106.069734781670093, 11.413333186227621, 0.0 ] } },
{ "type": "Feature", "properties": { "title": "Cống tiêu luồn", "X": 616575.0, "Y": 1261910.0, "Vitri": "K29+340", "Khaudo": "2D150", "CTday_m": null, "Qtk_m3s": null, "Htk_TL": null, "Htk_HL": null, "Ghichu": null, "Chucnang": "Cống tiêu luồn", "DT_tuoi_tk": null, "DT_tieu_tk": null }, "geometry": { "type": "Point", "coordinates": [ 106.068565285681871, 11.413471466562727, 0.0 ] } },
{ "type": "Feature", "properties": { "title": "Cống tiêu vào kết hợp tưới nước", "X": 614678.0, "Y": 1261980.0, "Vitri": "K31+256", "Khaudo": "D100", "CTday_m": null, "Qtk_m3s": null, "Htk_TL": null, "Htk_HL": null, "Ghichu": "Bờ hữu", "Chucnang": "Cống tiêu vào kết hợp tưới nước", "DT_tuoi_tk": null, "DT_tieu_tk": null }, "geometry": { "type": "Point", "coordinates": [ 106.051182384047763, 11.414111111566266, 17.117265035707199 ] } },
{ "type": "Feature", "properties": { "title": "Cống tiêu vào", "X": 613374.0, "Y": 1262020.0, "Vitri": "K32+563", "Khaudo": "2D150", "CTday_m": null, "Qtk_m3s": null, "Htk_TL": null, "Htk_HL": null, "Ghichu": "Bờ hữu", "Chucnang": "Cống tiêu vào", "DT_tuoi_tk": null, "DT_tieu_tk": null }, "geometry": { "type": "Point", "coordinates": [ 106.03922857679855, 11.414513726904866, 0.0 ] } },
{ "type": "Feature", "properties": { "title": "Cống điều tiết K32+745", "X": 613185.0, "Y": 1262000.0, "Vitri": "K32+745", "Khaudo": "3x(2,0x2,5)m", "CTday_m": "11,18", "Qtk_m3s": "26,79", "Htk_TL": "14,26", "Htk_HL": "13,85", "Ghichu": null, "Chucnang": "Điều tiết nước từ K25+255 đến K32+745", "DT_tuoi_tk": null, "DT_tieu_tk": null }, "geometry": { "type": "Point", "coordinates": [ 106.037504260571524, 11.414413481087758, 0.0 ] } },
{ "type": "Feature", "properties": { "title": "Cống lấy nước đầu kênh TN19", "X": 611620.0, "Y": 1262050.0, "Vitri": "K34+287", "Khaudo": "D120", "CTday_m": null, "Qtk_m3s": "1,70", "Htk_TL": "13,78", "Htk_HL": "13,64", "Ghichu": "Bờ tả", "Chucnang": "Cấu lấy nước đầu kênh TN19", "DT_tuoi_tk": "960ha", "DT_tieu_tk": null }, "geometry": { "type": "Point", "coordinates": [ 106.023160328997491, 11.414861576665286, 0.0 ] } },
{ "type": "Feature", "properties": { "title": "Cống xả đáy", "X": 610815.0, "Y": 1262080.0, "Vitri": "K35+080", "Khaudo": "D120", "CTday_m": null, "Qtk_m3s": null, "Htk_TL": null, "Htk_HL": null, "Ghichu": "Bờ tả", "Chucnang": "Cống xả đáy, làm năm 2018", "DT_tuoi_tk": null, "DT_tieu_tk": null }, "geometry": { "type": "Point", "coordinates": [ 106.015776504430889, 11.41515121785277, 0.0 ] } },
{ "type": "Feature", "properties": { "title": "Cống tiêu luồn", "X": 610802.0, "Y": 1262060.0, "Vitri": "K35+103", "Khaudo": "D150", "CTday_m": null, "Qtk_m3s": null, "Htk_TL": null, "Htk_HL": null, "Ghichu": null, "Chucnang": null, "DT_tuoi_tk": null, "DT_tieu_tk": null }, "geometry": { "type": "Point", "coordinates": [ 106.015657666151782, 11.415029414864126, 0.0 ] } },
{ "type": "Feature", "properties": { "title": "Cống lấy nước đầu kênh TN21", "X": 609696.0, "Y": 1262120.0, "Vitri": "K36+236", "Khaudo": "2x(2,0x2,0)m", "CTday_m": "11,02", "Qtk_m3s": "14,81", "Htk_TL": "13,71", "Htk_HL": "13,47", "Ghichu": "Bờ tả", "Chucnang": null, "DT_tuoi_tk": "44.142ha", "DT_tieu_tk": null }, "geometry": { "type": "Point", "coordinates": [ 106.005527004643326, 11.415531615455599, 0.0 ] } },
{ "type": "Feature", "properties": { "title": "Cống lấy nước đầu kênh Tân Biên", "X": 609391.0, "Y": 1262150.0, "Vitri": "K36+525", "Khaudo": "2x(1,75x2,80)m", "CTday_m": "11,06", "Qtk_m3s": "7,51", "Htk_TL": "13,71", "Htk_HL": "13,50", "Ghichu": "TN10 cũ", "Chucnang": "Cống lấy nước đầu kênh chính Tân Biên", "DT_tuoi_tk": "6407(13460)", "DT_tieu_tk": null }, "geometry": { "type": "Point", "coordinates": [ 106.002729246824174, 11.415887132867022, 0.0 ] } },
{ "type": "Feature", "properties": { "title": "Cống tiêu luồn", "X": 608569.0, "Y": 1262140.0, "Vitri": "K37+369", "Khaudo": "D150", "CTday_m": null, "Qtk_m3s": null, "Htk_TL": null, "Htk_HL": null, "Ghichu": null, "Chucnang": null, "DT_tuoi_tk": null, "DT_tieu_tk": null }, "geometry": { "type": "Point", "coordinates": [ 105.995198055799364, 11.415767790093948, 0.0 ] } },
{ "type": "Feature", "properties": { "title": "Cống vượt cấp", "X": 607952.0, "Y": 1262180.0, "Vitri": "K 37+988", "Khaudo": null, "CTday_m": null, "Qtk_m3s": null, "Htk_TL": null, "Htk_HL": null, "Ghichu": "Bờ tả", "Chucnang": "Cống lấy nước vượt cấp", "DT_tuoi_tk": null, "DT_tieu_tk": null }, "geometry": { "type": "Point", "coordinates": [ 105.989542910267673, 11.416184088833871, 0.0 ] } },
{ "type": "Feature", "properties": { "title": "Cống lấy nước đầu kênh TN12", "X": 607335.0, "Y": 1262220.0, "Vitri": "K38+580\r\n", "Khaudo": "D80", "CTday_m": "12,46", "Qtk_m3s": "0,249", "Htk_TL": "13,67", "Htk_HL": "13,05", "Ghichu": "Bờ hữu", "Chucnang": "Cống lấy nước đầu kênh TN12", "DT_tuoi_tk": "210ha", "DT_tieu_tk": null }, "geometry": { "type": "Point", "coordinates": [ 105.983885345878548, 11.416579099548903, 0.0 ] } },
{ "type": "Feature", "properties": { "title": "Cống lấy nước đầu kênh TN25", "X": 607261.0, "Y": 1262210.0, "Vitri": "K38+651", "Khaudo": "2x2.5m", "CTday_m": "11,21", "Qtk_m3s": "2,315", "Htk_TL": "13,67", "Htk_HL": "13,39", "Ghichu": "Bờ tả", "Chucnang": "Cống lấy nước đầu kênh TN25", "DT_tuoi_tk": "1950ha", "DT_tieu_tk": null }, "geometry": { "type": "Point", "coordinates": [ 105.983213578291384, 11.416453639243258, 0.0 ] } },
{ "type": "Feature", "properties": { "title": "Cống qua đường", "X": 607143.0, "Y": 1262220.0, "Vitri": "K38+766", "Khaudo": "2x(2x2,5)m", "CTday_m": null, "Qtk_m3s": null, "Htk_TL": null, "Htk_HL": null, "Ghichu": null, "Chucnang": "Cống qua đường", "DT_tuoi_tk": null, "DT_tieu_tk": null }, "geometry": { "type": "Point", "coordinates": [ 105.982127270909075, 11.416589070422772, 0.0 ] } },
{ "type": "Feature", "properties": { "title": "TN12A - K38+871", "X": 607070.0, "Y": 1262230.0, "Vitri": null, "Khaudo": null, "CTday_m": null, "Qtk_m3s": null, "Htk_TL": null, "Htk_HL": null, "Ghichu": null, "Chucnang": null, "DT_tuoi_tk": null, "DT_tieu_tk": null }, "geometry": { "type": "Point", "coordinates": [ 105.981462607512768, 11.41667765018398, 0.0 ] } },
{ "type": "Feature", "properties": { "title": "Cống vượt cấp - K38+885", "X": 607030.0, "Y": 1262220.0, "Vitri": null, "Khaudo": null, "CTday_m": null, "Qtk_m3s": null, "Htk_TL": null, "Htk_HL": null, "Ghichu": null, "Chucnang": null, "DT_tuoi_tk": null, "DT_tieu_tk": null }, "geometry": { "type": "Point", "coordinates": [ 105.981091788229165, 11.416529886544547, 0.0 ] } },
{ "type": "Feature", "properties": { "title": "Cống kết hợp tràn cuối K39 +055", "X": 606856.0, "Y": 1262240.0, "Vitri": "K39+055", "Khaudo": "3x3,5", "CTday_m": "10,5", "Qtk_m3s": "12,14", "Htk_TL": "13,66", "Htk_HL": null, "Ghichu": null, "Chucnang": "Tràn cuối kênh chính Tây, điều tiết nước từ K32+745 đến K39+055.", "DT_tuoi_tk": null, "DT_tieu_tk": null }, "geometry": { "type": "Point", "coordinates": [ 105.979498757298543, 11.416700922403598, 0.0 ] } },
{ "type": "Feature", "properties": { "title": "Cống tiêu vào", "X": 613123.0, "Y": 1262020.0, "Vitri": "K32+812", "Khaudo": "D100", "CTday_m": null, "Qtk_m3s": null, "Htk_TL": null, "Htk_HL": null, "Ghichu": "Bờ hữu", "Chucnang": "Cống tiêu vào", "DT_tuoi_tk": null, "DT_tieu_tk": null }, "geometry": { "type": "Point", "coordinates": [ 106.036934707868681, 11.414553264457679, 0.0 ] } },
{ "type": "Feature", "properties": { "title": "Cống lấy nước đầu kênh TN17", "X": 614816.0, "Y": 1261930.0, "Vitri": "K31+085", "Khaudo": "2x(2,0x2,5)m", "CTday_m": "11,30", "Qtk_m3s": "12,45", "Htk_TL": "14,29", "Htk_HL": "14,00\r\n", "Ghichu": "Bờ tả", "Chucnang": "Cống lấy nước đầu kênh TN17", "DT_tuoi_tk": "5.610ha", "DT_tieu_tk": null }, "geometry": { "type": "Point", "coordinates": [ 106.052446338240159, 11.41364663232982, 0.0 ] } },
{ "type": "Feature", "properties": { "title": "Cống tiêu luồn", "X": 618124.0, "Y": 1261680.0, "Vitri": null, "Khaudo": null, "CTday_m": null, "Qtk_m3s": null, "Htk_TL": null, "Htk_HL": null, "Ghichu": "Không có thông tin trong danh sách", "Chucnang": null, "DT_tuoi_tk": null, "DT_tieu_tk": null }, "geometry": { "type": "Point", "coordinates": [ 106.082752718693513, 11.41135704111438, 0.0 ] } },
{ "type": "Feature", "properties": { "title": "Cống xả đáy", "X": 618145.0, "Y": 1261690.0, "Vitri": "K27+738", "Khaudo": "D80", "CTday_m": null, "Qtk_m3s": null, "Htk_TL": null, "Htk_HL": null, "Ghichu": "Bờ tả, làm năm 2018", "Chucnang": "Cống xả đáy", "DT_tuoi_tk": null, "DT_tieu_tk": null }, "geometry": { "type": "Point", "coordinates": [ 106.082946364648819, 11.411400506291475, 0.0 ] } },
{ "type": "Feature", "properties": { "title": "Cống tự phát - CT Ko quản lý", "X": 618982.0, "Y": 1260930.0, "Vitri": "K26+600 - K26+700", "Khaudo": null, "CTday_m": null, "Qtk_m3s": null, "Htk_TL": null, "Htk_HL": null, "Ghichu": "Kime63 tra lại lý trình", "Chucnang": null, "DT_tuoi_tk": null, "DT_tieu_tk": null }, "geometry": { "type": "Point", "coordinates": [ 106.090590362634032, 11.404468761174302, 0.0 ] } },
{ "type": "Feature", "properties": { "title": "Cống vượt cấp", "X": 619213.0, "Y": 1260720.0, "Vitri": "K26+280", "Khaudo": "D30", "CTday_m": null, "Qtk_m3s": null, "Htk_TL": null, "Htk_HL": null, "Ghichu": "Bờ tả (Công ty không quản lý)", "Chucnang": null, "DT_tuoi_tk": null, "DT_tieu_tk": null }, "geometry": { "type": "Point", "coordinates": [ 106.092701837308383, 11.402572180442034, 0.0 ] } },
{ "type": "Feature", "properties": { "title": "Cống vượt cấp", "X": 620787.0, "Y": 1259910.0, "Vitri": "K24+428", "Khaudo": "D30", "CTday_m": null, "Qtk_m3s": null, "Htk_TL": null, "Htk_HL": null, "Ghichu": "Bờ tả", "Chucnang": "Cống lấy nước vượt cấp", "DT_tuoi_tk": null, "DT_tieu_tk": null }, "geometry": { "type": "Point", "coordinates": [ 106.107105029081367, 11.395179651494301, 16.061442949068535 ] } },
{ "type": "Feature", "properties": { "title": "Cống vượt cấp", "X": 620853.0, "Y": 1259780.0, "Vitri": "K23+250", "Khaudo": null, "CTday_m": null, "Qtk_m3s": null, "Htk_TL": null, "Htk_HL": null, "Ghichu": "Bờ hữu", "Chucnang": "Cống lấy nước vượt cấp", "DT_tuoi_tk": null, "DT_tieu_tk": null }, "geometry": { "type": "Point", "coordinates": [ 106.107701489259284, 11.394014308686696, 0.0 ] } },
{ "type": "Feature", "properties": { "title": "Cống lấy nước đầu kênh TN15", "X": 621143.0, "Y": 1259230.0, "Vitri": "K23+609", "Khaudo": "D60", "CTday_m": "14,03", "Qtk_m3s": "0,21", "Htk_TL": "14,74", "Htk_HL": "14,59", "Ghichu": "Bờ tả", "Chucnang": "Cống lấy nước đầu kênh TN15", "DT_tuoi_tk": "78ha", "DT_tieu_tk": null }, "geometry": { "type": "Point", "coordinates": [ 106.11033879946568, 11.389056361583522, 0.0 ] } },
{ "type": "Feature", "properties": { "title": "Cống lấy nước đầu kênh TN13", "X": 621512.0, "Y": 1258520.0, "Vitri": "K22+811", "Khaudo": "D60", "CTday_m": "14,10", "Qtk_m3s": "0,24", "Htk_TL": "14,76", "Htk_HL": "14,6", "Ghichu": "Bờ tả", "Chucnang": "Cống lấy nước đầu kênh TN13", "DT_tuoi_tk": "150ha", "DT_tieu_tk": null }, "geometry": { "type": "Point", "coordinates": [ 106.113692029599719, 11.382653482653446, 0.0 ] } },
{ "type": "Feature", "properties": { "title": "Cống lấy nước đầu kênh TN11A", "X": 622062.0, "Y": 1257470.0, "Vitri": "K21+623", "Khaudo": "D80", "CTday_m": "14,02", "Qtk_m3s": "0,251", "Htk_TL": "15,37", "Htk_HL": "14,90", "Ghichu": "Bờ tả", "Chucnang": "Cống lấy nước đầu kênh TN11A", "DT_tuoi_tk": "177ha", "DT_tieu_tk": null }, "geometry": { "type": "Point", "coordinates": [ 106.118698988317533, 11.373081585210254, 0.0 ] } },
{ "type": "Feature", "properties": { "title": "Cống Nhà máy đường", "X": 622096.0, "Y": 1257470.0, "Vitri": "K21+600", "Khaudo": "D100", "CTday_m": null, "Qtk_m3s": null, "Htk_TL": null, "Htk_HL": null, "Ghichu": "Bờ hữu", "Chucnang": "Cống cấp nước cho Nhà máy đường Biên Hòa Tây Ninh", "DT_tuoi_tk": null, "DT_tieu_tk": null }, "geometry": { "type": "Point", "coordinates": [ 106.119014530301598, 11.373109702384239, 0.0 ] } },
{ "type": "Feature", "properties": { "title": "Cống Nhà máy mì", "X": 622090.0, "Y": 1257410.0, "Vitri": "K21+570", "Khaudo": "D60", "CTday_m": null, "Qtk_m3s": null, "Htk_TL": null, "Htk_HL": null, "Ghichu": "Bờ tả", "Chucnang": "Cống cấp nước cho Nhà máy khoai mỳ Tây Ninh", "DT_tuoi_tk": null, "DT_tieu_tk": null }, "geometry": { "type": "Point", "coordinates": [ 106.118957373454251, 11.372602419731161, 0.0 ] } },
{ "type": "Feature", "properties": { "title": "Cống lấy nước đầu kênh TN11", "X": 622263.0, "Y": 1257080.0, "Vitri": "K21+190", "Khaudo": "D80+D100", "CTday_m": "13,79", "Qtk_m3s": "0,98", "Htk_TL": "15,38", "Htk_HL": "14,90", "Ghichu": "Bờ tả", "Chucnang": null, "DT_tuoi_tk": "584ha", "DT_tieu_tk": null }, "geometry": { "type": "Point", "coordinates": [ 106.120528638583181, 11.369591780118098, 0.0 ] } },
{ "type": "Feature", "properties": { "title": "Cống xả đáy", "X": 623042.0, "Y": 1256050.0, "Vitri": "K19+940", "Khaudo": "D80", "CTday_m": null, "Qtk_m3s": null, "Htk_TL": null, "Htk_HL": null, "Ghichu": "Bờ tả", "Chucnang": "Cống xả đáy", "DT_tuoi_tk": null, "DT_tieu_tk": null }, "geometry": { "type": "Point", "coordinates": [ 106.127626298668119, 11.360207760182666, 0.0 ] } },
{ "type": "Feature", "properties": { "title": "Cống tiêu luồn", "X": 623060.0, "Y": 1256030.0, "Vitri": "K19+910", "Khaudo": "4D150", "CTday_m": null, "Qtk_m3s": null, "Htk_TL": null, "Htk_HL": null, "Ghichu": null, "Chucnang": "Cống tiêu luồn qua kênh", "DT_tuoi_tk": null, "DT_tieu_tk": null }, "geometry": { "type": "Point", "coordinates": [ 106.127789617739495, 11.360059627038057, 0.0 ] } },
{ "type": "Feature", "properties": { "title": "Cống đầu kênh TN9", "X": 623543.0, "Y": 1255460.0, "Vitri": "K19+087", "Khaudo": "D100", "CTday_m": "14,08", "Qtk_m3s": "0,35", "Htk_TL": "15,44", "Htk_HL": "15,10", "Ghichu": "Bờ tả", "Chucnang": "Cống lấy nước đầu kênh TN9", "DT_tuoi_tk": "198ha", "DT_tieu_tk": null }, "geometry": { "type": "Point", "coordinates": [ 106.13219697364778, 11.354889988578694, 0.0 ] } },
{ "type": "Feature", "properties": { "title": "Cống cấp nước Nhà máy nước Tây Ninh", "X": 623943.0, "Y": 1254620.0, "Vitri": "K18+150", "Khaudo": "2D80", "CTday_m": null, "Qtk_m3s": null, "Htk_TL": null, "Htk_HL": null, "Ghichu": "Bờ tả (Nhà máy quản lý)", "Chucnang": "Cống cấp nước cho Nhà máy nước Tây Ninh", "DT_tuoi_tk": null, "DT_tieu_tk": null }, "geometry": { "type": "Point", "coordinates": [ 106.135834240501111, 11.347299060626105, 0.0 ] } },
{ "type": "Feature", "properties": { "title": "Cống tiêu luồn", "X": 623962.0, "Y": 1254570.0, "Vitri": "K18+104", "Khaudo": "2D150", "CTday_m": null, "Qtk_m3s": null, "Htk_TL": null, "Htk_HL": null, "Ghichu": null, "Chucnang": "Cống tiêu luồn qua kênh", "DT_tuoi_tk": null, "DT_tieu_tk": null }, "geometry": { "type": "Point", "coordinates": [ 106.13600519218771, 11.346839179311301, 0.0 ] } },
{ "type": "Feature", "properties": { "title": "Cống lấy nước đầu kênh TN7", "X": 624685.0, "Y": 1253710.0, "Vitri": "K16+957", "Khaudo": "D100", "CTday_m": "14,18", "Qtk_m3s": "0,451", "Htk_TL": "15,54", "Htk_HL": "15,10", "Ghichu": "Bờ tả", "Chucnang": "Cống lấy nước đầu kênh TN7", "DT_tuoi_tk": "175ha", "DT_tieu_tk": null }, "geometry": { "type": "Point", "coordinates": [ 106.142603929417305, 11.338993040091909, 13.090490978211164 ] } },
{ "type": "Feature", "properties": { "title": "Cống lấy nước đầu kênh TN7A", "X": 625734.0, "Y": 1252500.0, "Vitri": "K15+313", "Khaudo": "D60", "CTday_m": "14,44", "Qtk_m3s": "0,075", "Htk_TL": "15,64", "Htk_HL": "15,17", "Ghichu": "Bờ tả", "Chucnang": "Cống lấy nước đầu kênh TN7A", "DT_tuoi_tk": "55ha", "DT_tieu_tk": null }, "geometry": { "type": "Point", "coordinates": [ 106.152164308953658, 11.328032181241566, 0.0 ] } },
{ "type": "Feature", "properties": { "title": "Cống tiêu luồn", "X": 625983.0, "Y": 1252410.0, "Vitri": "K15+052", "Khaudo": "4D150", "CTday_m": null, "Qtk_m3s": null, "Htk_TL": null, "Htk_HL": null, "Ghichu": null, "Chucnang": "Cống tiêu luồn qua kênh", "DT_tuoi_tk": null, "DT_tieu_tk": null }, "geometry": { "type": "Point", "coordinates": [ 106.154449182983285, 11.327260276551851, 0.0 ] } },
{ "type": "Feature", "properties": { "title": "Cống tiêu luồn", "X": 627093.0, "Y": 1252120.0, "Vitri": "K13+917", "Khaudo": "2D150", "CTday_m": null, "Qtk_m3s": null, "Htk_TL": null, "Htk_HL": null, "Ghichu": null, "Chucnang": "Cống tiêu luồn qua kênh", "DT_tuoi_tk": null, "DT_tieu_tk": null }, "geometry": { "type": "Point", "coordinates": [ 106.16460234489746, 11.324525467268252, 0.0 ] } },
{ "type": "Feature", "properties": { "title": "Cống điều tiết K13+072", "X": 627888.0, "Y": 1251920.0, "Vitri": "K13+073", "Khaudo": "3x(3x3,5)m", "CTday_m": "12,37", "Qtk_m3s": "40,78", "Htk_TL": "16,07", "Htk_HL": "15,71", "Ghichu": null, "Chucnang": "Điều tiết cấp nước từ K0 đến K13+072", "DT_tuoi_tk": null, "DT_tieu_tk": null }, "geometry": { "type": "Point", "coordinates": [ 106.171885163629469, 11.322752719661956, 0.0 ] } },
{ "type": "Feature", "properties": { "title": "Cống tiêu luồn", "X": 628441.0, "Y": 1251800.0, "Vitri": "K12+514", "Khaudo": "2x2m", "CTday_m": null, "Qtk_m3s": null, "Htk_TL": null, "Htk_HL": null, "Ghichu": null, "Chucnang": "Cống tiêu luồn qua kênh", "DT_tuoi_tk": null, "DT_tieu_tk": null }, "geometry": { "type": "Point", "coordinates": [ 106.176948539837184, 11.321579457288236, 0.0 ] } },
{ "type": "Feature", "properties": { "title": "Cống lấy nước đầu kênh TN5", "X": 629017.0, "Y": 1251580.0, "Vitri": "K11+903", "Khaudo": "D150+D80", "CTday_m": "14,15", "Qtk_m3s": "2,40", "Htk_TL": "16,11", "Htk_HL": "15,86", "Ghichu": "Bờ tả", "Chucnang": "Cống lấy nước đầu kênh TN5", "DT_tuoi_tk": "1.137ha", "DT_tieu_tk": null }, "geometry": { "type": "Point", "coordinates": [ 106.182214099960575, 11.319640068075076, 0.0 ] } },
{ "type": "Feature", "properties": { "title": "Cống lấy nước đầu kênh TN3", "X": 629491.0, "Y": 1251460.0, "Vitri": "K11+417", "Khaudo": "D100", "CTday_m": "14,58", "Qtk_m3s": "0,335", "Htk_TL": "16,13", "Htk_HL": "15,75", "Ghichu": "Bờ tả", "Chucnang": "Cống lấy nước đầu kênh TN3", "DT_tuoi_tk": "334ha", "DT_tieu_tk": null }, "geometry": { "type": "Point", "coordinates": [ 106.186556068012763, 11.318542503852907, 0.0 ] } },
{ "type": "Feature", "properties": { "title": "Cống vượt cấp", "X": 630133.0, "Y": 1251310.0, "Vitri": "K10+700", "Khaudo": "D40", "CTday_m": null, "Qtk_m3s": null, "Htk_TL": null, "Htk_HL": null, "Ghichu": "Bờ tả", "Chucnang": "Cống lấy nước vượt cấp", "DT_tuoi_tk": null, "DT_tieu_tk": null }, "geometry": { "type": "Point", "coordinates": [ 106.192428828099992, 11.317124778164606, 0.0 ] } },
{ "type": "Feature", "properties": { "title": "Cống VC2", "X": 630861.0, "Y": 1251120.0, "Vitri": "K10+004", "Khaudo": "D60", "CTday_m": "15,31", "Qtk_m3s": "0,094", "Htk_TL": "16,2", "Htk_HL": "15,61", "Ghichu": "Bờ tả", "Chucnang": "Cống tưới kênh VC2", "DT_tuoi_tk": "50ha", "DT_tieu_tk": null }, "geometry": { "type": "Point", "coordinates": [ 106.199092029870428, 11.315398520661082, 0.0 ] } },
{ "type": "Feature", "properties": { "title": "Cống tiêu luồn", "X": 631056.0, "Y": 1251080.0, "Vitri": "K9+798", "Khaudo": "2x(1,7x1,7)m", "CTday_m": null, "Qtk_m3s": null, "Htk_TL": null, "Htk_HL": null, "Ghichu": null, "Chucnang": null, "DT_tuoi_tk": null, "DT_tieu_tk": null }, "geometry": { "type": "Point", "coordinates": [ 106.200877676201415, 11.315003444529887, 12.904140475206077 ] } },
{ "type": "Feature", "properties": { "title": "Cống VC1", "X": 631802.0, "Y": 1250890.0, "Vitri": "K9+033", "Khaudo": "D60", "CTday_m": "15,25", "Qtk_m3s": "0,162", "Htk_TL": "16,24", "Htk_HL": "15,52", "Ghichu": "Bờ tả", "Chucnang": "Cống tưới kênh VC1", "DT_tuoi_tk": "80ha", "DT_tieu_tk": null }, "geometry": { "type": "Point", "coordinates": [ 106.207700855951714, 11.313296981069559, 0.0 ] } },
{ "type": "Feature", "properties": { "title": "Cống điều tiết K4+400 PH-BĐ", "X": 632026.0, "Y": 1246470.0, "Vitri": "K4+400", "Khaudo": "3x(3x2,5)m", "CTday_m": null, "Qtk_m3s": null, "Htk_TL": null, "Htk_HL": null, "Ghichu": null, "Chucnang": "Không sử dụng", "DT_tuoi_tk": null, "DT_tieu_tk": null }, "geometry": { "type": "Point", "coordinates": [ 106.209584915823513, 11.273264012521365, 0.0 ] } },
{ "type": "Feature", "properties": { "title": "Cống tiêu vào", "X": 632011.0, "Y": 1246540.0, "Vitri": "K4+340", "Khaudo": "D100", "CTday_m": null, "Qtk_m3s": null, "Htk_TL": null, "Htk_HL": null, "Ghichu": "Bờ hữu", "Chucnang": "Cống tiêu vào kênh", "DT_tuoi_tk": null, "DT_tieu_tk": null }, "geometry": { "type": "Point", "coordinates": [ 106.209455727641668, 11.273882090668064, 0.0 ] } },
{ "type": "Feature", "properties": { "title": "Cống tiêu vào - ko có trong ds nhưng có thực tế", "X": 631998.0, "Y": 1246270.0, "Vitri": null, "Khaudo": null, "CTday_m": null, "Qtk_m3s": null, "Htk_TL": null, "Htk_HL": null, "Ghichu": null, "Chucnang": null, "DT_tuoi_tk": null, "DT_tieu_tk": null }, "geometry": { "type": "Point", "coordinates": [ 106.20932387991877, 11.271479961912016, 0.0 ] } },
{ "type": "Feature", "properties": { "title": "Cống tiêu vào", "X": 632031.0, "Y": 1246160.0, "Vitri": "K4+700", "Khaudo": "D80", "CTday_m": null, "Qtk_m3s": null, "Htk_TL": null, "Htk_HL": null, "Ghichu": "Bờ tả", "Chucnang": "Cống tiêu vào kênh", "DT_tuoi_tk": null, "DT_tieu_tk": null }, "geometry": { "type": "Point", "coordinates": [ 106.209625340057045, 11.270498741123534, 0.0 ] } },
{ "type": "Feature", "properties": { "title": "Cống tiêu vào", "X": 631963.0, "Y": 1245670.0, "Vitri": "K5+180", "Khaudo": "D80", "CTday_m": null, "Qtk_m3s": null, "Htk_TL": null, "Htk_HL": null, "Ghichu": "Bờ tả", "Chucnang": "Cống tiêu vào kênh", "DT_tuoi_tk": null, "DT_tieu_tk": null }, "geometry": { "type": "Point", "coordinates": [ 106.20898238783353, 11.266102706511415, 0.0 ] } },
{ "type": "Feature", "properties": { "title": "Cống điều tiết K5+750 PH-BĐ", "X": 631847.0, "Y": 1245220.0, "Vitri": "K5+750", "Khaudo": "3x(3x2,5)m", "CTday_m": null, "Qtk_m3s": null, "Htk_TL": null, "Htk_HL": null, "Ghichu": null, "Chucnang": "Cống điều tiết nước cuối kênh tiêu Phước Hội - Bến Đình", "DT_tuoi_tk": null, "DT_tieu_tk": null }, "geometry": { "type": "Point", "coordinates": [ 106.20790566782712, 11.261988873712045, 0.0 ] } },
{ "type": "Feature", "properties": { "title": "Đầu cống tiêu", "X": 631943.0, "Y": 1246270.0, "Vitri": null, "Khaudo": null, "CTday_m": null, "Qtk_m3s": null, "Htk_TL": null, "Htk_HL": null, "Ghichu": null, "Chucnang": null, "DT_tuoi_tk": null, "DT_tieu_tk": null }, "geometry": { "type": "Point", "coordinates": [ 106.208821296664752, 11.271506059482826, 19.367658362122668 ] } },
{ "type": "Feature", "properties": { "title": "X. Thạnh Đức - cống của nông trường cao su  - 4", "X": 631971.0, "Y": 1245910.0, "Vitri": null, "Khaudo": null, "CTday_m": null, "Qtk_m3s": null, "Htk_TL": null, "Htk_HL": null, "Ghichu": null, "Chucnang": null, "DT_tuoi_tk": null, "DT_tieu_tk": null }, "geometry": { "type": "Point", "coordinates": [ 106.209063670311664, 11.268208925748212, 0.0 ] } },
{ "type": "Feature", "properties": { "title": "Cống tiêu - nông trường cao su -5", "X": 631869.0, "Y": 1245320.0, "Vitri": null, "Khaudo": null, "CTday_m": null, "Qtk_m3s": null, "Htk_TL": null, "Htk_HL": null, "Ghichu": null, "Chucnang": null, "DT_tuoi_tk": null, "DT_tieu_tk": null }, "geometry": { "type": "Point", "coordinates": [ 106.208103657542495, 11.262918500045535, 9.026467843977953 ] } },
{ "type": "Feature", "properties": { "title": "Cống nông trường cao su k4+100,  1", "X": 632028.0, "Y": 1246750.0, "Vitri": null, "Khaudo": null, "CTday_m": null, "Qtk_m3s": null, "Htk_TL": null, "Htk_HL": null, "Ghichu": null, "Chucnang": null, "DT_tuoi_tk": null, "DT_tieu_tk": null }, "geometry": { "type": "Point", "coordinates": [ 106.209620398093776, 11.275827413845033, 0.0 ] } },
{ "type": "Feature", "properties": { "title": "Cống tiêu K3+700", "X": 632039.0, "Y": 1247100.0, "Vitri": null, "Khaudo": null, "CTday_m": null, "Qtk_m3s": null, "Htk_TL": null, "Htk_HL": null, "Ghichu": null, "Chucnang": null, "DT_tuoi_tk": null, "DT_tieu_tk": null }, "geometry": { "type": "Point", "coordinates": [ 106.209734380175391, 11.279009798389959, 0.0 ] } },
{ "type": "Feature", "properties": { "title": "Cống tiêu thoát nước", "X": 632088.0, "Y": 1247370.0, "Vitri": null, "Khaudo": null, "CTday_m": null, "Qtk_m3s": null, "Htk_TL": null, "Htk_HL": null, "Ghichu": null, "Chucnang": null, "DT_tuoi_tk": null, "DT_tieu_tk": null }, "geometry": { "type": "Point", "coordinates": [ 106.210195287578571, 11.281421927120334, 0.0 ] } },
{ "type": "Feature", "properties": { "title": "Cống tiêu thoát nước", "X": 632056.0, "Y": 1247400.0, "Vitri": null, "Khaudo": null, "CTday_m": null, "Qtk_m3s": null, "Htk_TL": null, "Htk_HL": null, "Ghichu": null, "Chucnang": null, "DT_tuoi_tk": null, "DT_tieu_tk": null }, "geometry": { "type": "Point", "coordinates": [ 106.209899580059584, 11.281677247119838, 0.0 ] } },
{ "type": "Feature", "properties": { "title": "Cống tiêu thoát nước đô thị", "X": 632046.0, "Y": 1247320.0, "Vitri": null, "Khaudo": null, "CTday_m": null, "Qtk_m3s": null, "Htk_TL": null, "Htk_HL": null, "Ghichu": null, "Chucnang": null, "DT_tuoi_tk": null, "DT_tieu_tk": null }, "geometry": { "type": "Point", "coordinates": [ 106.209803218803344, 11.280950111940603, 0.0 ] } },
{ "type": "Feature", "properties": { "title": "Cống tiêu vào", "X": 632094.0, "Y": 1247490.0, "Vitri": "K3+350", "Khaudo": "D80", "CTday_m": null, "Qtk_m3s": null, "Htk_TL": null, "Htk_HL": null, "Ghichu": "Bờ tả", "Chucnang": "Cống tiêu nước vào kênh", "DT_tuoi_tk": null, "DT_tieu_tk": null }, "geometry": { "type": "Point", "coordinates": [ 106.210245715994034, 11.282483136784428, 0.0 ] } },
{ "type": "Feature", "properties": { "title": "Cống tiêu vào", "X": 632065.0, "Y": 1247610.0, "Vitri": "K3+210", "Khaudo": "D80", "CTday_m": null, "Qtk_m3s": null, "Htk_TL": null, "Htk_HL": null, "Ghichu": "Bờ hữu", "Chucnang": "Cống tiêu nước vào kênh", "DT_tuoi_tk": null, "DT_tieu_tk": null }, "geometry": { "type": "Point", "coordinates": [ 106.209984780111284, 11.283555370275781, 0.0 ] } },
{ "type": "Feature", "properties": { "title": "Cống tiêu vào - k1+600 ( danh sách ko có)", "X": 632162.0, "Y": 1249210.0, "Vitri": null, "Khaudo": null, "CTday_m": null, "Qtk_m3s": null, "Htk_TL": null, "Htk_HL": null, "Ghichu": null, "Chucnang": null, "DT_tuoi_tk": null, "DT_tieu_tk": null }, "geometry": { "type": "Point", "coordinates": [ 106.21093677153884, 11.298058852093094, 0.0 ] } },
{ "type": "Feature", "properties": { "title": "Cống điều tiết K1+500 PH-BĐ", "X": 632145.0, "Y": 1249310.0, "Vitri": "K1+500", "Khaudo": "3(3x2,5)m", "CTday_m": "12,44", "Qtk_m3s": "60,72", "Htk_TL": null, "Htk_HL": null, "Ghichu": null, "Chucnang": "Điều tiết, cấp nước tạo nguồn, tiêu thoát nước lưu vực suối Xa Cách", "DT_tuoi_tk": null, "DT_tieu_tk": "8.920ha" }, "geometry": { "type": "Point", "coordinates": [ 106.210787751067727, 11.29898198908373, 0.0 ] } },
{ "type": "Feature", "properties": { "title": "Cống đầu kênh TN1A", "X": 632168.0, "Y": 1249370.0, "Vitri": "K1+428(K8+550 kênh Tây)", "Khaudo": "1,5x1,5m", "CTday_m": "13,24", "Qtk_m3s": "0,19", "Htk_TL": "15,9", "Htk_HL": "15,8", "Ghichu": "Bờ tả kênh tiêu Phước Hội - Bến Đình", "Chucnang": "Cống lấy nước đầu kênh TN1A kênh tiêu Phước Hội - Bến Đình", "DT_tuoi_tk": "160ha", "DT_tieu_tk": null }, "geometry": { "type": "Point", "coordinates": [ 106.211001704609515, 11.299468484635623, 0.0 ] } },
{ "type": "Feature", "properties": { "title": "Cống đầu kênh TN1", "X": 632133.0, "Y": 1249460.0, "Vitri": "K1+338(K8+450 kênh Tây)", "Khaudo": "2x(1,5x1,5)m", "CTday_m": "13,24", "Qtk_m3s": "3,502", "Htk_TL": "15,95", "Htk_HL": "15,85", "Ghichu": "Bờ hữu kênh tiêu Phước Hội - Bến Đình", "Chucnang": "Cống lấy nước đầu kênh TN1 kênh tiêu Phước Hội - Bến Đình", "DT_tuoi_tk": "2.950ha", "DT_tieu_tk": null }, "geometry": { "type": "Point", "coordinates": [ 106.21067877818254, 11.300354948218331, 0.0 ] } },
{ "type": "Feature", "properties": { "title": "Cống tiêu vào", "X": 632479.0, "Y": 1251210.0, "Vitri": "K8+207", "Khaudo": "1,5x1,5m", "CTday_m": null, "Qtk_m3s": null, "Htk_TL": null, "Htk_HL": null, "Ghichu": "Bờ hữu", "Chucnang": "Cống tiêu vào kênh", "DT_tuoi_tk": null, "DT_tieu_tk": null }, "geometry": { "type": "Point", "coordinates": [ 106.21392252429051, 11.31610278595705, 0.0 ] } },
{ "type": "Feature", "properties": { "title": "Cống tiêu vào", "X": 633416.0, "Y": 1252400.0, "Vitri": "K6+705", "Khaudo": "1,5x1,5m", "CTday_m": null, "Qtk_m3s": null, "Htk_TL": null, "Htk_HL": null, "Ghichu": "Bờ hữu", "Chucnang": "Cống tiêu vào kênh", "DT_tuoi_tk": null, "DT_tieu_tk": null }, "geometry": { "type": "Point", "coordinates": [ 106.222550508146142, 11.326826666203756, 0.0 ] } },
{ "type": "Feature", "properties": { "title": "Cống tiêu vào", "X": 634562.0, "Y": 1255050.0, "Vitri": "K3+723", "Khaudo": "1,5x1,5m", "CTday_m": null, "Qtk_m3s": null, "Htk_TL": null, "Htk_HL": null, "Ghichu": "Bờ hữu", "Chucnang": "Cống tiêu vào kênh", "DT_tuoi_tk": null, "DT_tieu_tk": null }, "geometry": { "type": "Point", "coordinates": [ 106.233151871543527, 11.350731760050245, 21.753463160811805 ] } },
{ "type": "Feature", "properties": { "title": "Cống tiêu vào", "X": 634824.0, "Y": 1255890.0, "Vitri": "K2+831", "Khaudo": "D60", "CTday_m": null, "Qtk_m3s": null, "Htk_TL": null, "Htk_HL": null, "Ghichu": "Bờ tả", "Chucnang": "Cống tiêu vào kênh", "DT_tuoi_tk": null, "DT_tieu_tk": null }, "geometry": { "type": "Point", "coordinates": [ 106.235585375992272, 11.358319512868221, 0.0 ] } },
{ "type": "Feature", "properties": { "title": "Cống tiêu vào", "X": 635519.0, "Y": 1256880.0, "Vitri": "K1+184", "Khaudo": "1,5x1,5m", "CTday_m": "12,84", "Qtk_m3s": null, "Htk_TL": null, "Htk_HL": null, "Ghichu": "Bờ tả", "Chucnang": "Cống tiêu vào kênh", "DT_tuoi_tk": null, "DT_tieu_tk": null }, "geometry": { "type": "Point", "coordinates": [ 106.241990758114696, 11.367267346932319, 20.634869477483672 ] } },
{ "type": "Feature", "properties": { "title": "Cống đầu kênh TN0-1A", "X": 636855.0, "Y": 1257440.0, "Vitri": "K0+080", "Khaudo": "2x(2x2)m", "CTday_m": "18,00", "Qtk_m3s": null, "Htk_TL": "20,3", "Htk_HL": "19,94", "Ghichu": "Bờ tả", "Chucnang": null, "DT_tuoi_tk": null, "DT_tieu_tk": null }, "geometry": { "type": "Point", "coordinates": [ 106.254258720670379, 11.37225595074727, 0.0 ] } },
{ "type": "Feature", "properties": { "title": "Cống đầu kênh TN0-2A", "X": 636841.0, "Y": 1257440.0, "Vitri": "K0+080", "Khaudo": "2x2m", "CTday_m": "18,00", "Qtk_m3s": null, "Htk_TL": "20,3", "Htk_HL": "19,94", "Ghichu": "Bờ tả", "Chucnang": "Cống lấy nước đầu kênh TN0-2A", "DT_tuoi_tk": null, "DT_tieu_tk": null }, "geometry": { "type": "Point", "coordinates": [ 106.254126611546099, 11.372299063727615, 0.0 ] } }
]
}
