{
"type": "FeatureCollection",
"name": "KT_CauGT",
"crs": { "type": "name", "properties": { "name": "urn:ogc:def:crs:OGC:1.3:CRS84" } },
"features": [
{ "type": "Feature", "properties": { "title": "Cầu thô sơ", "X": 621028.0, "Y": 1259490.0, "Vitri": "K23+893", "Ghichu": null, "Chieudai": null, "Berong": null, "Chucnang": "Cầu giao thông thô sơ", "Ketcau": "Thép" }, "geometry": { "type": "Point", "coordinates": [ 106.109294331824856, 11.391377732091124, 0.0 ] } },
{ "type": "Feature", "properties": { "title": "Cầu thô sơ", "X": 618488.0, "Y": 1261390.0, "Vitri": "K27+272", "Ghichu": null, "Chieudai": "28", "Berong": "2,3", "Chucnang": "Cầu giao thông thô sơ", "Ketcau": null }, "geometry": { "type": "Point", "coordinates": [ 106.086083131453364, 11.40870288406092, 0.0 ] } },
{ "type": "Feature", "properties": { "title": "Cầu giao thông", "X": 615290.0, "Y": 1261930.0, "Vitri": "K30+785", "Ghichu": null, "Chieudai": "37,5", "Berong": "4,0", "Chucnang": null, "Ketcau": null }, "geometry": { "type": "Point", "coordinates": [ 106.056794818384716, 11.413703588465731, 0.0 ] } },
{ "type": "Feature", "properties": { "title": "Cầu giao thông", "X": 609708.0, "Y": 1262130.0, "Vitri": "K36+228", "Ghichu": null, "Chieudai": "25", "Berong": "4", "Chucnang": "Cầu giao thông", "Ketcau": null }, "geometry": { "type": "Point", "coordinates": [ 106.005635491945341, 11.415638424509403, 0.0 ] } },
{ "type": "Feature", "properties": { "title": "Cầu giao thông", "X": 622254.0, "Y": 1257140.0, "Vitri": "K21+260", "Ghichu": null, "Chieudai": null, "Berong": null, "Chucnang": null, "Ketcau": null }, "geometry": { "type": "Point", "coordinates": [ 106.120448081807183, 11.370106398558693, 0.0 ] } },
{ "type": "Feature", "properties": { "title": "Cầu giao thông", "X": 622779.0, "Y": 1256330.0, "Vitri": "K20+333", "Ghichu": null, "Chieudai": null, "Berong": null, "Chucnang": null, "Ketcau": null }, "geometry": { "type": "Point", "coordinates": [ 106.125233236199108, 11.362807532371773, 0.0 ] } },
{ "type": "Feature", "properties": { "title": "Cầu giao thông", "X": 623972.0, "Y": 1254610.0, "Vitri": "K18+137", "Ghichu": null, "Chieudai": null, "Berong": null, "Chucnang": null, "Ketcau": null }, "geometry": { "type": "Point", "coordinates": [ 106.136098456588428, 11.347164818289382, 0.0 ] } },
{ "type": "Feature", "properties": { "title": "Cầu giao thông", "X": 625465.0, "Y": 1252640.0, "Vitri": "K15+606", "Ghichu": null, "Chieudai": null, "Berong": null, "Chucnang": null, "Ketcau": null }, "geometry": { "type": "Point", "coordinates": [ 106.149707111764442, 11.329275634788743, 0.0 ] } },
{ "type": "Feature", "properties": { "title": "Cầu giao thông", "X": 629382.0, "Y": 1251510.0, "Vitri": "K11+529", "Ghichu": null, "Chieudai": null, "Berong": null, "Chucnang": null, "Ketcau": null }, "geometry": { "type": "Point", "coordinates": [ 106.185560155764549, 11.318970568267243, 0.0 ] } },
{ "type": "Feature", "properties": { "title": "Cầu giao thông", "X": 631584.0, "Y": 1250970.0, "Vitri": "K9+270", "Ghichu": null, "Chieudai": null, "Berong": null, "Chucnang": null, "Ketcau": "BTCT, 2 nhịp" }, "geometry": { "type": "Point", "coordinates": [ 106.205705250580735, 11.314020277397981, 0.0 ] } },
{ "type": "Feature", "properties": { "title": "Cầu giao thông", "X": 632069.0, "Y": 1247350.0, "Vitri": "K3+500", "Ghichu": null, "Chieudai": null, "Berong": null, "Chucnang": "Cầu giao thông DT784", "Ketcau": null }, "geometry": { "type": "Point", "coordinates": [ 106.210016929770703, 11.2812497912645, 0.0 ] } },
{ "type": "Feature", "properties": { "title": "Cầu máng TN0-2A-2", "X": 634210.0, "Y": 1253330.0, "Vitri": "K5+466", "Ghichu": "Tỉnh đầu tư kinh phí, tỉnh quản lý.", "Chieudai": null, "Berong": null, "Chucnang": "Cầu máng dẫn nước qua kênh kết hợp giao thông", "Ketcau": null }, "geometry": { "type": "Point", "coordinates": [ 106.229862721708443, 11.335255904256591, 0.0 ] } },
{ "type": "Feature", "properties": { "title": "Cầu giao thông", "X": 634625.0, "Y": 1255130.0, "Vitri": "K3+615", "Ghichu": null, "Chieudai": "60", "Berong": "9", "Chucnang": "Cầu giao thông", "Ketcau": null }, "geometry": { "type": "Point", "coordinates": [ 106.233728083710616, 11.351456412668838, 0.0 ] } }
]
}
