{
"type": "FeatureCollection",
"name": "KT_HanhlangBVCT",
"crs": { "type": "name", "properties": { "name": "urn:ogc:def:crs:OGC:1.3:CRS84" } },
"features": [
{ "type": "Feature", "properties": { "OID_": 0, "Name": "Polyline_001", "FolderPath": "KENH TAY.kml/Entity Features", "SymbolID": 0, "AltMode": -1, "Base": 0.0, "Clamped": 0, "Extruded": 0, "Snippet": null, "PopupInfo": "HLBV", "Shape_Leng": 0.34156210982000001 }, "geometry": { "type": "MultiLineString", "coordinates": [ [ [ 105.979424335000033, 11.416974027000037, 0.0 ], [ 105.980017492000059, 11.417000212000062, 0.0 ], [ 105.980511576000083, 11.416949981000073, 0.0 ], [ 105.981468904000053, 11.416857932000028, 0.0 ], [ 105.982391835000044, 11.416823633000035, 0.0 ], [ 105.983665933000054, 11.416774102000034, 0.0 ], [ 105.983798714000045, 11.416772706000074, 0.0 ], [ 105.983820973000036, 11.416854667000052, 0.0 ], [ 105.983954143000062, 11.416849575000072, 0.0 ], [ 105.983955651000088, 11.416771252000046, 0.0 ], [ 105.984552284000074, 11.416764879000027, 0.0 ], [ 105.98585789200007, 11.416698919000055, 0.0 ], [ 105.986414445000037, 11.416679862000024, 0.0 ], [ 105.987062321000053, 11.416655370000058, 0.0 ], [ 105.988321918000054, 11.416607042000066, 0.0 ], [ 105.989161380000041, 11.416555649000031, 0.0 ], [ 105.989768062000053, 11.416563477000068, 0.0 ], [ 105.990927485000043, 11.416546522000033, 0.0 ], [ 105.991905647000067, 11.416535317000069, 0.0 ], [ 105.992815160000077, 11.416521696000075, 0.0 ], [ 105.994142683000064, 11.416447396000024, 0.0 ], [ 105.995090119000054, 11.416413734000059, 0.0 ], [ 105.995128378000061, 11.416476656000043, 0.0 ], [ 105.995304109000074, 11.416458134000038, 0.0 ], [ 105.995300192000059, 11.416397757000027, 0.0 ], [ 105.995854620000046, 11.416367899000022, 0.0 ], [ 105.996488579000072, 11.416348933000052, 0.0 ], [ 105.997354065000081, 11.416297212000075, 0.0 ], [ 105.99857221700006, 11.416234217000067, 0.0 ], [ 106.000027816000056, 11.416169650000029, 0.0 ], [ 106.001312202000065, 11.416078921000064, 0.0 ], [ 106.00255383800004, 11.416019714000072, 0.0 ], [ 106.002554390000057, 11.416213537000033, 0.0 ], [ 106.002879982000081, 11.416202709000061, 0.0 ], [ 106.00294718400005, 11.416011291000075, 0.0 ], [ 106.004046104000054, 11.415959890000067, 0.0 ], [ 106.004753304000076, 11.415932058000067, 0.0 ], [ 106.005516874000079, 11.415917610000065, 0.0 ], [ 106.006123521000063, 11.415891247000047, 0.0 ], [ 106.006558962000042, 11.415869091000047, 0.0 ], [ 106.007394011000088, 11.415826391000053, 0.0 ], [ 106.008785842000066, 11.415799471000071, 0.0 ], [ 106.009990171000084, 11.415767645000074, 0.0 ], [ 106.010885269000084, 11.415721843000028, 0.0 ], [ 106.012658348000059, 11.415637383000046, 0.0 ], [ 106.014290282000047, 11.415586954000048, 0.0 ], [ 106.014799108000034, 11.415539542000033, 0.0 ], [ 106.01563886100007, 11.415552276000028, 0.0 ], [ 106.015632873000072, 11.415671958000075, 0.0 ], [ 106.015840283000045, 11.415669483000045, 0.0 ], [ 106.015839604000064, 11.415547303000039, 0.0 ], [ 106.016631361000066, 11.415499938000039, 0.0 ], [ 106.017426440000065, 11.415486702000067, 0.0 ], [ 106.018994487000043, 11.415454840000052, 0.0 ], [ 106.020088675000068, 11.415409552000028, 0.0 ], [ 106.021792060000053, 11.415351994000048, 0.0 ], [ 106.022860922000064, 11.415314127000045, 0.0 ], [ 106.024023635000049, 11.415278466000075, 0.0 ], [ 106.024874081000064, 11.415237004000062, 0.0 ], [ 106.025554095000075, 11.415220589000057, 0.0 ], [ 106.026963179000063, 11.415156711000066, 0.0 ], [ 106.027620617000082, 11.415128948000074, 0.0 ], [ 106.028557214000045, 11.415107529000068, 0.0 ], [ 106.029653385000074, 11.415076775000045, 0.0 ], [ 106.030369050000047, 11.415036007000026, 0.0 ], [ 106.031280260000074, 11.41499239500007, 0.0 ], [ 106.03248564200004, 11.414940423000075, 0.0 ], [ 106.033115923000082, 11.414919233000035, 0.0 ], [ 106.034142879000058, 11.414897794000069, 0.0 ], [ 106.034986656000058, 11.414855592000038, 0.0 ], [ 106.036050378000084, 11.414796585000033, 0.0 ], [ 106.036968309000088, 11.414735455000027, 0.0 ], [ 106.037148450000075, 11.414717473000053, 0.0 ], [ 106.037653010000042, 11.414681083000062, 0.0 ], [ 106.038609736000069, 11.414677956000048, 0.0 ], [ 106.039144633000035, 11.414672023000037, 0.0 ], [ 106.039147580000076, 11.414811432000022, 0.0 ], [ 106.039372908000075, 11.414807128000064, 0.0 ], [ 106.039373031000082, 11.414669490000051, 0.0 ], [ 106.040967049000074, 11.414589986000067, 0.0 ], [ 106.041355499000076, 11.414573239000049, 0.0 ], [ 106.041855625000039, 11.414557210000055, 0.0 ], [ 106.043578224000044, 11.414491941000051, 0.0 ], [ 106.044808430000046, 11.414448317000051, 0.0 ], [ 106.046182426000087, 11.414386419000039, 0.0 ], [ 106.047555493000061, 11.414328115000046, 0.0 ], [ 106.047764673000074, 11.414323244000059, 0.0 ], [ 106.048691525000038, 11.414309919000061, 0.0 ], [ 106.049597605000088, 11.41427056200007, 0.0 ], [ 106.050307015000044, 11.414250362000075, 0.0 ], [ 106.050873357000057, 11.414228822000041, 0.0 ], [ 106.050949280000054, 11.414348333000021, 0.0 ], [ 106.051455382000086, 11.414323578000051, 0.0 ], [ 106.051594863000048, 11.414200019000077, 0.0 ], [ 106.052346490000048, 11.414182746000051, 0.0 ], [ 106.053033882000079, 11.414143274000025, 0.0 ], [ 106.054401022000036, 11.414074046000053, 0.0 ], [ 106.055090162000056, 11.414044478000051, 0.0 ], [ 106.055830951000075, 11.414027946000033, 0.0 ], [ 106.056695840000089, 11.414020346000029, 0.0 ], [ 106.057124027000043, 11.414014446000067, 0.0 ], [ 106.057839327000067, 11.413971868000033, 0.0 ], [ 106.058405150000056, 11.413947433000033, 0.0 ], [ 106.05991750000004, 11.413871249000067, 0.0 ], [ 106.061291002000075, 11.413833285000067, 0.0 ], [ 106.062770903000057, 11.413762573000042, 0.0 ], [ 106.064038374000063, 11.413726291000046, 0.0 ], [ 106.065175940000074, 11.413685888000032, 0.0 ], [ 106.066286108000043, 11.413673857000049, 0.0 ], [ 106.066762881000045, 11.41363453200006, 0.0 ], [ 106.068136646000085, 11.41357812800004, 0.0 ], [ 106.06813763200006, 11.413622498000052, 0.0 ], [ 106.068685755000047, 11.413620722000076, 0.0 ], [ 106.068684623000081, 11.413567637000028, 0.0 ], [ 106.068827913000064, 11.413564833000066, 0.0 ], [ 106.069648232000077, 11.413527769000041, 0.0 ], [ 106.069679732000054, 11.413624772000048, 0.0 ], [ 106.06981707500006, 11.413607753000065, 0.0 ], [ 106.069858707000037, 11.413509195000074, 0.0 ], [ 106.070524792000072, 11.413449627000034, 0.0 ], [ 106.071697809000057, 11.413368716000036, 0.0 ], [ 106.072786628000074, 11.413346059000048, 0.0 ], [ 106.073588229000052, 11.413348747000043, 0.0 ], [ 106.075164955000048, 11.413240419000033, 0.0 ], [ 106.076151429000049, 11.413234435000049, 0.0 ], [ 106.076845738000088, 11.413231542000062, 0.0 ], [ 106.077802698000085, 11.413227463000055, 0.0 ], [ 106.078999940000074, 11.413157858000034, 0.0 ], [ 106.080192972000077, 11.41311680900003, 0.0 ], [ 106.081339417000038, 11.41305361700006, 0.0 ], [ 106.081700222000052, 11.413021826000033, 0.0 ], [ 106.081909665000069, 11.412836801000026, 0.0 ], [ 106.082363428000065, 11.412417611000023, 0.0 ], [ 106.083027149000088, 11.411851135000063, 0.0 ], [ 106.08308340800005, 11.411956030000056, 0.0 ], [ 106.083309697000061, 11.411828580000076, 0.0 ], [ 106.083244463000085, 11.411644225000032, 0.0 ], [ 106.083551735000071, 11.411374213000045, 0.0 ], [ 106.084273706000033, 11.410651732000076, 0.0 ], [ 106.084368433000066, 11.410734211000033, 0.0 ], [ 106.084461765000071, 11.41064169200007, 0.0 ], [ 106.084378368000046, 11.410537838000039, 0.0 ], [ 106.084722265000039, 11.410205100000042, 0.0 ], [ 106.085191014000088, 11.409774815000048, 0.0 ], [ 106.08576684500008, 11.40924676800006, 0.0 ], [ 106.086196662000077, 11.408859497000037, 0.0 ], [ 106.08657723400006, 11.408513109000069, 0.0 ], [ 106.087153597000054, 11.40796911800004, 0.0 ], [ 106.087612, 11.407569993000038, 0.0 ], [ 106.088117361000059, 11.40713665800007, 0.0 ], [ 106.088651104000064, 11.406676655000069, 0.0 ], [ 106.089210551000065, 11.406157962000066, 0.0 ], [ 106.089818541000056, 11.405574760000036, 0.0 ], [ 106.090139880000038, 11.405289118000042, 0.0 ], [ 106.091269676000081, 11.404273390000071, 0.0 ], [ 106.091601453000067, 11.403984265000076, 0.0 ], [ 106.092184165000049, 11.403449908000027, 0.0 ], [ 106.092506962000073, 11.403137317000073, 0.0 ], [ 106.093236308000087, 11.402568788000053, 0.0 ], [ 106.093991009000035, 11.401824495000028, 0.0 ], [ 106.094571150000036, 11.401311179000061, 0.0 ], [ 106.095318731000077, 11.400662222000051, 0.0 ], [ 106.095962996000083, 11.400067625000077, 0.0 ], [ 106.096539032000067, 11.399509446000025, 0.0 ], [ 106.097184954000056, 11.399008586000036, 0.0 ], [ 106.097317931000077, 11.398831634000032, 0.0 ], [ 106.097539921000077, 11.398750175000032, 0.0 ], [ 106.097966242000041, 11.398661799000024, 0.0 ], [ 106.099310508000087, 11.398392102000059, 0.0 ], [ 106.100490097000034, 11.398119594000036, 0.0 ], [ 106.101902194000047, 11.397815814000069, 0.0 ], [ 106.102510977000065, 11.397666378000054, 0.0 ], [ 106.103650849000076, 11.397393413000032, 0.0 ], [ 106.104282890000036, 11.397244999000065, 0.0 ], [ 106.105100869000069, 11.397008528000072, 0.0 ], [ 106.105574862000083, 11.396867531000055, 0.0 ], [ 106.106545981000068, 11.396575983000048, 0.0 ], [ 106.106855388000042, 11.396375982000052, 0.0 ], [ 106.107027728000048, 11.396491093000066, 0.0 ], [ 106.107256094000036, 11.396256895000022, 0.0 ], [ 106.107027593000055, 11.396135437000055, 0.0 ], [ 106.107164212000043, 11.395845114000053, 0.0 ], [ 106.107685944000082, 11.395002130000023, 0.0 ], [ 106.108309126000051, 11.393887835000044, 0.0 ], [ 106.10894538000008, 11.39271350100006, 0.0 ], [ 106.109204201000068, 11.392224772000077, 0.0 ], [ 106.109723673000076, 11.391217161000043, 0.0 ], [ 106.110404226000071, 11.389909039000031, 0.0 ], [ 106.110873396000045, 11.389005154000074, 0.0 ], [ 106.111295513000073, 11.388203994000037, 0.0 ], [ 106.111568350000084, 11.38765352300004, 0.0 ], [ 106.111674605000076, 11.387699397000063, 0.0 ], [ 106.111794191000058, 11.387355943000045, 0.0 ], [ 106.111721909000039, 11.387327137000057, 0.0 ], [ 106.112139162000062, 11.386576550000029, 0.0 ], [ 106.112547944000084, 11.385781351000048, 0.0 ], [ 106.112785788000053, 11.385335178000048, 0.0 ], [ 106.113431372000036, 11.384183317000065, 0.0 ], [ 106.113851039000053, 11.383391928000037, 0.0 ], [ 106.114257375000079, 11.382580954000048, 0.0 ], [ 106.114508583000088, 11.38205685500003, 0.0 ], [ 106.115070194000054, 11.380960219000031, 0.0 ], [ 106.115430823000054, 11.380221360000064, 0.0 ], [ 106.115896709000083, 11.379348418000063, 0.0 ], [ 106.116318517000082, 11.378544267000052, 0.0 ], [ 106.116708699000071, 11.377725516000055, 0.0 ], [ 106.117127216000085, 11.376921980000077, 0.0 ], [ 106.117308928000057, 11.376555737000047, 0.0 ], [ 106.117607968000073, 11.376673900000071, 0.0 ], [ 106.117662507000034, 11.376448624000034, 0.0 ], [ 106.11752031900005, 11.376380900000072, 0.0 ], [ 106.117418918000055, 11.376334051000072, 0.0 ], [ 106.117589328000065, 11.376061287000027, 0.0 ], [ 106.117713157000082, 11.375854625000045, 0.0 ], [ 106.117836475000047, 11.375660758000038, 0.0 ], [ 106.117978707000077, 11.375432876000048, 0.0 ], [ 106.118152408000071, 11.375142766000067, 0.0 ], [ 106.118248202000075, 11.374973627000031, 0.0 ], [ 106.118373803000054, 11.374728763000064, 0.0 ], [ 106.118580929000075, 11.374362311000027, 0.0 ], [ 106.118707426000071, 11.374132516000032, 0.0 ], [ 106.11881466300008, 11.373913126000048, 0.0 ], [ 106.119343219000086, 11.372962021000035, 0.0 ], [ 106.119573132000085, 11.372505710000041, 0.0 ], [ 106.120075907000057, 11.371511534000035, 0.0 ], [ 106.120675135000056, 11.37034660300003, 0.0 ], [ 106.12100083100006, 11.369768767000039, 0.0 ], [ 106.121361376000038, 11.369111541000052, 0.0 ], [ 106.122038743000076, 11.367758588000072, 0.0 ], [ 106.122253796000052, 11.367324238000037, 0.0 ], [ 106.122617497000078, 11.366589411000064, 0.0 ], [ 106.123269792000087, 11.365353784000035, 0.0 ], [ 106.123464583000043, 11.364972718000047, 0.0 ], [ 106.124113547000036, 11.364247066000075, 0.0 ], [ 106.125102129000084, 11.363338254000041, 0.0 ], [ 106.126088104000075, 11.362519124000073, 0.0 ], [ 106.127156548000073, 11.361522173000026, 0.0 ], [ 106.127156548000073, 11.361522173000026, 0.0 ], [ 106.128084150000063, 11.360577147000072, 0.0 ], [ 106.128165269000078, 11.360660148000022, 0.0 ], [ 106.128347477000034, 11.360484800000052, 0.0 ], [ 106.128254208000044, 11.360377774000028, 0.0 ], [ 106.129153883000072, 11.359656758000028, 0.0 ], [ 106.130087777000085, 11.358798421000074, 0.0 ], [ 106.130751119000081, 11.358171900000059, 0.0 ], [ 106.131409864000034, 11.357573396000021, 0.0 ], [ 106.131606721000082, 11.357273097000075, 0.0 ], [ 106.131910449000088, 11.356571794000047, 0.0 ], [ 106.132534360000079, 11.355317404000061, 0.0 ], [ 106.13267673100006, 11.355018682000036, 0.0 ], [ 106.133113517000083, 11.354074393000076, 0.0 ], [ 106.133522109000069, 11.353189645000043, 0.0 ], [ 106.133815115000061, 11.352568270000063, 0.0 ], [ 106.134336232000067, 11.351501194000036, 0.0 ], [ 106.13479938100005, 11.350544627000033, 0.0 ], [ 106.135457038000084, 11.349170815000036, 0.0 ], [ 106.135797369000045, 11.348492899000064, 0.0 ], [ 106.136021258000085, 11.348015406000059, 0.0 ], [ 106.136435034000044, 11.347147201000041, 0.0 ], [ 106.136548147000042, 11.34719381900004, 0.0 ], [ 106.136647486000072, 11.346968702000026, 0.0 ], [ 106.136540940000089, 11.346927423000068, 0.0 ], [ 106.13699639400005, 11.345679197000038, 0.0 ], [ 106.137224543000059, 11.345143651000058, 0.0 ], [ 106.137548198000047, 11.344284446000074, 0.0 ], [ 106.137953591000041, 11.343550858000071, 0.0 ], [ 106.138430646000074, 11.343252337000024, 0.0 ], [ 106.139278019000074, 11.342620257000021, 0.0 ], [ 106.140276416000063, 11.34178780700006, 0.0 ], [ 106.141324820000079, 11.340812801000027, 0.0 ], [ 106.142287510000074, 11.339918042000022, 0.0 ], [ 106.14287575700007, 11.339395817000025, 0.0 ], [ 106.143524675000037, 11.338915836000069, 0.0 ], [ 106.143756686000074, 11.338783245000059, 0.0 ], [ 106.143961393000041, 11.338662394000039, 0.0 ], [ 106.14417108400005, 11.338461959000028, 0.0 ], [ 106.144338077000043, 11.338259213000072, 0.0 ], [ 106.144862439000065, 11.337444127000026, 0.0 ], [ 106.145097993000036, 11.33707269100006, 0.0 ], [ 106.145619665000083, 11.336262001000023, 0.0 ], [ 106.146350768000048, 11.335157967000043, 0.0 ], [ 106.146760277000055, 11.334512564000022, 0.0 ], [ 106.147074860000032, 11.334006096000053, 0.0 ], [ 106.147293135000041, 11.333667650000052, 0.0 ], [ 106.147871318000057, 11.332764834000045, 0.0 ], [ 106.14815922300005, 11.332323172000031, 0.0 ], [ 106.148544420000064, 11.331739974000072, 0.0 ], [ 106.149283875000037, 11.330571484000075, 0.0 ], [ 106.149405196000032, 11.330375564000065, 0.0 ], [ 106.149746771000082, 11.32981615500006, 0.0 ], [ 106.149985551000043, 11.329405606000023, 0.0 ], [ 106.150054318000059, 11.329313758000069, 0.0 ], [ 106.150139041000045, 11.329221787000051, 0.0 ], [ 106.150259091000066, 11.329131778000033, 0.0 ], [ 106.150314043000037, 11.329097965000074, 0.0 ], [ 106.150489623000055, 11.329019779000021, 0.0 ], [ 106.150744008000061, 11.328942088000076, 0.0 ], [ 106.151193033000084, 11.328800611000077, 0.0 ], [ 106.15190494400008, 11.328576866000049, 0.0 ], [ 106.152513782000085, 11.328397327000062, 0.0 ], [ 106.152957419000074, 11.328270255000064, 0.0 ], [ 106.153813913000079, 11.328033356000049, 0.0 ], [ 106.154139505000046, 11.32793872700006, 0.0 ], [ 106.154469600000084, 11.327856563000068, 0.0 ], [ 106.154542786000036, 11.327957176000041, 0.0 ], [ 106.154773047000049, 11.327914109000062, 0.0 ], [ 106.154712152000059, 11.327803350000067, 0.0 ], [ 106.155173656000045, 11.327720054000054, 0.0 ], [ 106.155906102000074, 11.32752638200003, 0.0 ], [ 106.156244763000075, 11.327429953000035, 0.0 ], [ 106.157578324000042, 11.327103210000075, 0.0 ], [ 106.157825264000053, 11.327045432000034, 0.0 ], [ 106.158400848000042, 11.326906017000056, 0.0 ], [ 106.158911479000039, 11.326776851000034, 0.0 ], [ 106.16022242300005, 11.326409230000024, 0.0 ], [ 106.161457197000061, 11.326036584000065, 0.0 ], [ 106.162424724000061, 11.325760371000058, 0.0 ], [ 106.164021535000074, 11.325348336000047, 0.0 ], [ 106.164572164000049, 11.32516855700004, 0.0 ], [ 106.164613350000081, 11.32524886300007, 0.0 ], [ 106.164836734000062, 11.325175818000048, 0.0 ], [ 106.164796975000058, 11.325107914000057, 0.0 ], [ 106.165229104000048, 11.324996674000033, 0.0 ], [ 106.166837153000074, 11.324544586000059, 0.0 ], [ 106.167981746000066, 11.324229208000077, 0.0 ], [ 106.168262923000043, 11.324149981000062, 0.0 ], [ 106.169296642000063, 11.323795606000033, 0.0 ], [ 106.170617785000047, 11.323422700000037, 0.0 ], [ 106.171828970000035, 11.323073327000031, 0.0 ], [ 106.172604635000084, 11.322854194000058, 0.0 ], [ 106.174306720000061, 11.322424615000045, 0.0 ], [ 106.175448174000053, 11.322125652000068, 0.0 ], [ 106.175851282000053, 11.322018688000071, 0.0 ], [ 106.176872246000073, 11.321724920000065, 0.0 ], [ 106.176900266000075, 11.321802008000077, 0.0 ], [ 106.17712111700007, 11.321734624000044, 0.0 ], [ 106.177100052000071, 11.321659609000051, 0.0 ], [ 106.177559237000082, 11.321527570000057, 0.0 ], [ 106.178401652000048, 11.321274569000025, 0.0 ], [ 106.179775609000046, 11.32089806700003, 0.0 ], [ 106.181049761000054, 11.320542428000067, 0.0 ], [ 106.182233991000032, 11.320225785000048, 0.0 ], [ 106.182266456000036, 11.32021727800003, 0.0 ], [ 106.18378617500008, 11.319834958000058, 0.0 ], [ 106.18438877300008, 11.319678115000045, 0.0 ], [ 106.184827893000033, 11.319581872000072, 0.0 ], [ 106.185465972000088, 11.319386105000035, 0.0 ], [ 106.18570403800004, 11.319315398000072, 0.0 ], [ 106.185945117000074, 11.319316638000032, 0.0 ], [ 106.186702518000061, 11.319089096000027, 0.0 ], [ 106.187508941000033, 11.318902043000037, 0.0 ], [ 106.188096594000058, 11.31877550400003, 0.0 ], [ 106.189005810000083, 11.31849661900003, 0.0 ], [ 106.190287519000037, 11.318193268000073, 0.0 ], [ 106.191675905000068, 11.317854197000031, 0.0 ], [ 106.19304405400004, 11.317500648000021, 0.0 ], [ 106.194335983000087, 11.317176762000031, 0.0 ], [ 106.195674487000076, 11.316870796000046, 0.0 ], [ 106.197006969000086, 11.316538622000053, 0.0 ], [ 106.19728107800006, 11.31646851000005, 0.0 ], [ 106.198334364000061, 11.316187414000069, 0.0 ], [ 106.199669965000055, 11.315870897000025, 0.0 ], [ 106.200900061000084, 11.315560670000025, 0.0 ], [ 106.200936579000086, 11.315644204000023, 0.0 ], [ 106.201093385000036, 11.315599951000024, 0.0 ], [ 106.201080512000033, 11.31551263700004, 0.0 ], [ 106.201139459000046, 11.315497006000044, 0.0 ], [ 106.201693056000067, 11.315368774000035, 0.0 ], [ 106.202246468000055, 11.315211987000055, 0.0 ], [ 106.203509840000038, 11.314884577000043, 0.0 ], [ 106.203993124000078, 11.314775720000057, 0.0 ], [ 106.20484097800005, 11.314549876000058, 0.0 ], [ 106.205165160000035, 11.314469299000052, 0.0 ], [ 106.205853194000042, 11.314304256000071, 0.0 ], [ 106.206523797000045, 11.314163391000022, 0.0 ], [ 106.207450620000088, 11.313926743000025, 0.0 ], [ 106.208601034000083, 11.313640761000045, 0.0 ], [ 106.210178235000058, 11.313256032000027, 0.0 ], [ 106.210987744000079, 11.313061207000032, 0.0 ], [ 106.21120546700007, 11.313062878000039, 0.0 ], [ 106.211450533000061, 11.313298744000065, 0.0 ], [ 106.212328822000075, 11.314318705000062, 0.0 ], [ 106.213194782000073, 11.315362902000061, 0.0 ], [ 106.213829879000059, 11.316210908000073, 0.0 ], [ 106.214091310000072, 11.316581541000062, 0.0 ], [ 106.214616367000076, 11.317266716000063, 0.0 ], [ 106.215298001000065, 11.318167433000042, 0.0 ], [ 106.216397082000071, 11.319510915000023, 0.0 ], [ 106.216703275000043, 11.319889782000075, 0.0 ], [ 106.217196065000053, 11.320497064000051, 0.0 ], [ 106.218044146000068, 11.321564256000045, 0.0 ], [ 106.218906274000062, 11.322619803000066, 0.0 ], [ 106.21928328100006, 11.323065093000025, 0.0 ], [ 106.219766334000042, 11.323677152000073, 0.0 ], [ 106.220694933000061, 11.324819464000029, 0.0 ], [ 106.221648007000056, 11.325957871000071, 0.0 ], [ 106.222400820000075, 11.326914391000059, 0.0 ], [ 106.22324109200008, 11.327968521000059, 0.0 ], [ 106.224006827000039, 11.328897350000034, 0.0 ], [ 106.224468566000041, 11.329468564000024, 0.0 ], [ 106.224920806000057, 11.330026538000027, 0.0 ], [ 106.225554696000074, 11.330805245000022, 0.0 ], [ 106.225738676000049, 11.331035278000058, 0.0 ], [ 106.226635593000083, 11.332145986000057, 0.0 ], [ 106.226754046000053, 11.332292837000068, 0.0 ], [ 106.227019651000035, 11.332634365000047, 0.0 ], [ 106.227181883000071, 11.332841439000049, 0.0 ], [ 106.227472957000089, 11.333204060000071, 0.0 ], [ 106.22833361000005, 11.334278329000028, 0.0 ], [ 106.228989428000034, 11.335059014000024, 0.0 ], [ 106.229314126000077, 11.335444780000046, 0.0 ], [ 106.229242487000079, 11.335529296000061, 0.0 ], [ 106.229500512000072, 11.335740205000036, 0.0 ], [ 106.229532848000076, 11.335716901000069, 0.0 ], [ 106.229713399000048, 11.335956305000025, 0.0 ], [ 106.229809921000083, 11.336120491000031, 0.0 ], [ 106.229877222000084, 11.336300866000045, 0.0 ], [ 106.229912701000046, 11.336447187000033, 0.0 ], [ 106.229981567000038, 11.336793880000073, 0.0 ], [ 106.230162973000063, 11.337579135000055, 0.0 ], [ 106.230293055000061, 11.33815074000006, 0.0 ], [ 106.230452596000077, 11.33895238100007, 0.0 ], [ 106.230596286000036, 11.339664938000055, 0.0 ], [ 106.230713652000077, 11.340258636000044, 0.0 ], [ 106.231020792000038, 11.341722324000045, 0.0 ], [ 106.231152510000072, 11.342307422000033, 0.0 ], [ 106.231293842000071, 11.342934645000071, 0.0 ], [ 106.231434264000086, 11.343559465000055, 0.0 ], [ 106.231586324000034, 11.344259977000036, 0.0 ], [ 106.231753003000051, 11.345010028000047, 0.0 ], [ 106.23185006600005, 11.345452102000024, 0.0 ], [ 106.231910347000053, 11.345720656000026, 0.0 ], [ 106.23199371700008, 11.346148498000048, 0.0 ], [ 106.232155976000058, 11.346913218000054, 0.0 ], [ 106.232256659000086, 11.347393669000041, 0.0 ], [ 106.232449288000055, 11.34823732600006, 0.0 ], [ 106.232642335000037, 11.349068856000031, 0.0 ], [ 106.232827204000046, 11.349889977000032, 0.0 ], [ 106.233024005000061, 11.350761179000074, 0.0 ], [ 106.23314102900008, 11.351245842000026, 0.0 ], [ 106.233257693000041, 11.35164654700003, 0.0 ], [ 106.233433185000081, 11.352520585000036, 0.0 ], [ 106.233553030000053, 11.353112501000055, 0.0 ], [ 106.233594801000038, 11.353531118000035, 0.0 ], [ 106.233871270000066, 11.354711676000022, 0.0 ], [ 106.234167082000056, 11.356006402000048, 0.0 ], [ 106.234289230000059, 11.356541840000034, 0.0 ], [ 106.234474546000058, 11.357328400000029, 0.0 ], [ 106.234749588000057, 11.35865685300007, 0.0 ], [ 106.234818717000053, 11.358986224000034, 0.0 ], [ 106.235023041000034, 11.359985751000067, 0.0 ], [ 106.235346192000065, 11.361304897000025, 0.0 ], [ 106.235525045000088, 11.361995796000031, 0.0 ], [ 106.23566984200005, 11.362620823000043, 0.0 ], [ 106.235781159000055, 11.363151143000039, 0.0 ], [ 106.235922146000064, 11.363688896000042, 0.0 ], [ 106.235989497000048, 11.363938928000039, 0.0 ], [ 106.236126358000035, 11.364410824000061, 0.0 ], [ 106.236211224000044, 11.364819686000033, 0.0 ], [ 106.23627997300008, 11.365031848000058, 0.0 ], [ 106.236385504000054, 11.365186742000049, 0.0 ] ] ] } },
{ "type": "Feature", "properties": { "OID_": 0, "Name": "Polyline_001", "FolderPath": "KENH TAY.kml/Entity Features", "SymbolID": 0, "AltMode": -1, "Base": 0.0, "Clamped": 0, "Extruded": 0, "Snippet": null, "PopupInfo": "HLBV", "Shape_Leng": 0.3335718319 }, "geometry": { "type": "MultiLineString", "coordinates": [ [ [ 106.207626436000055, 11.262130723000041, 0.0 ], [ 106.207832654000072, 11.262538534000043, 0.0 ], [ 106.207957290000081, 11.262860028000034, 0.0 ], [ 106.208176298000069, 11.26409275900005, 0.0 ], [ 106.208377437000081, 11.265284418000022, 0.0 ], [ 106.208529720000058, 11.266320370000074, 0.0 ], [ 106.208799686000077, 11.267728447000025, 0.0 ], [ 106.20895764900007, 11.268619912000077, 0.0 ], [ 106.209043192000081, 11.269077810000056, 0.0 ], [ 106.209092592000047, 11.269501442000035, 0.0 ], [ 106.209121955000057, 11.269794023000031, 0.0 ], [ 106.20917946700007, 11.270394486000043, 0.0 ], [ 106.209208794000062, 11.270748344000026, 0.0 ], [ 106.209188682000047, 11.271481056000027, 0.0 ], [ 106.209244701000046, 11.272053773000039, 0.0 ], [ 106.209284048000086, 11.272554256000035, 0.0 ], [ 106.209279712000068, 11.272816629000033, 0.0 ], [ 106.209330902000033, 11.27343957100004, 0.0 ], [ 106.209369291000087, 11.274050551000073, 0.0 ], [ 106.209402762000082, 11.274673757000073, 0.0 ], [ 106.209388890000071, 11.275075198000025, 0.0 ], [ 106.209389483000052, 11.275194825000028, 0.0 ], [ 106.209439047000046, 11.275556151000046, 0.0 ], [ 106.209477955000068, 11.275914469000043, 0.0 ], [ 106.209507579000046, 11.276716152000063, 0.0 ], [ 106.209567118000052, 11.277640208000037, 0.0 ], [ 106.209530542000039, 11.277999289000036, 0.0 ], [ 106.209545610000077, 11.278628126000058, 0.0 ], [ 106.209566847000076, 11.279223816000069, 0.0 ], [ 106.209571914000037, 11.279876301000058, 0.0 ], [ 106.209620190000066, 11.280821059000061, 0.0 ], [ 106.209680903000049, 11.281281900000067, 0.0 ], [ 106.20981088800005, 11.282510694000052, 0.0 ], [ 106.209850017000065, 11.283390198000063, 0.0 ], [ 106.209844387000032, 11.283597782000072, 0.0 ], [ 106.209846362000064, 11.284714585000074, 0.0 ], [ 106.209898990000056, 11.285851283000056, 0.0 ], [ 106.20999508400007, 11.288047647000042, 0.0 ], [ 106.210086462000049, 11.290273006000064, 0.0 ], [ 106.21014436300004, 11.29180251400004, 0.0 ], [ 106.210183495000081, 11.292558633000056, 0.0 ], [ 106.210251105000054, 11.293813484000054, 0.0 ], [ 106.210290599000075, 11.294722062000062, 0.0 ], [ 106.210331307000047, 11.296112623000056, 0.0 ], [ 106.210369361000062, 11.296691902000077, 0.0 ], [ 106.21037788600006, 11.296968458000038, 0.0 ], [ 106.210442853000075, 11.298729165000054, 0.0 ], [ 106.210536967000053, 11.300236119000033, 0.0 ], [ 106.210265777000075, 11.300260890000061, 0.0 ], [ 106.210274322000032, 11.300470806000021, 0.0 ], [ 106.210552247000066, 11.300482101000057, 0.0 ], [ 106.210585839000032, 11.301026601000046, 0.0 ], [ 106.210668362000035, 11.302643090000061, 0.0 ], [ 106.210701364000045, 11.303302381000037, 0.0 ], [ 106.210742633000052, 11.305262619000075, 0.0 ], [ 106.210777788000087, 11.306839134000029, 0.0 ], [ 106.210854655000048, 11.308103373000051, 0.0 ], [ 106.210978580000074, 11.310453761000076, 0.0 ], [ 106.211044509000033, 11.311814492000053, 0.0 ], [ 106.21103099000004, 11.312268031000031, 0.0 ], [ 106.21071014000006, 11.312366698000062, 0.0 ], [ 106.210433482000042, 11.312439058000052, 0.0 ], [ 106.210021832000052, 11.312548927000023, 0.0 ], [ 106.209036425000079, 11.312779837000051, 0.0 ], [ 106.208407210000075, 11.312942939000038, 0.0 ], [ 106.208279304000087, 11.312978988000054, 0.0 ], [ 106.207922086000053, 11.313074181000047, 0.0 ], [ 106.207663636000063, 11.313141004000045, 0.0 ], [ 106.207263201000046, 11.313238539000054, 0.0 ], [ 106.206837154000084, 11.313354424000067, 0.0 ], [ 106.206419290000042, 11.313462220000076, 0.0 ], [ 106.205730745000039, 11.313666977000025, 0.0 ], [ 106.204676223000035, 11.313951780000025, 0.0 ], [ 106.203406977000043, 11.314271949000045, 0.0 ], [ 106.202751068000055, 11.31442226300004, 0.0 ], [ 106.20204751600005, 11.314609242000074, 0.0 ], [ 106.201487772000064, 11.314753179000036, 0.0 ], [ 106.200952468000082, 11.314864683000053, 0.0 ], [ 106.200922950000063, 11.314783251000051, 0.0 ], [ 106.200748310000051, 11.314812892000077, 0.0 ], [ 106.200754072000052, 11.314906136000047, 0.0 ], [ 106.200608819000081, 11.314936418000059, 0.0 ], [ 106.199946150000073, 11.315091205000044, 0.0 ], [ 106.199105915000075, 11.315307688000075, 0.0 ], [ 106.197766012000045, 11.31566285200006, 0.0 ], [ 106.196377526000049, 11.316016976000071, 0.0 ], [ 106.19535466800005, 11.316270265000071, 0.0 ], [ 106.194181062000041, 11.316560717000073, 0.0 ], [ 106.192768494000063, 11.316919474000031, 0.0 ], [ 106.191444627000067, 11.317256709000048, 0.0 ], [ 106.189953937000041, 11.317629214000021, 0.0 ], [ 106.188849952000055, 11.317894495000075, 0.0 ], [ 106.187481566000088, 11.318244175000075, 0.0 ], [ 106.186729971000034, 11.318430841000065, 0.0 ], [ 106.186656105000054, 11.318317475000072, 0.0 ], [ 106.186434137000049, 11.318369358000041, 0.0 ], [ 106.186450642000068, 11.318500831000051, 0.0 ], [ 106.185397124000076, 11.318764693000048, 0.0 ], [ 106.184339584000043, 11.319015249000074, 0.0 ], [ 106.183697572000085, 11.319123864000062, 0.0 ], [ 106.182282809000071, 11.319495821000032, 0.0 ], [ 106.182249997000042, 11.319358, 0.0 ], [ 106.182064109000066, 11.319417800000053, 0.0 ], [ 106.182052867000039, 11.319571398000051, 0.0 ], [ 106.181099526000082, 11.319858923000027, 0.0 ], [ 106.18025450600004, 11.320079692000036, 0.0 ], [ 106.17821108000004, 11.320682924000039, 0.0 ], [ 106.176918982000075, 11.321046381000031, 0.0 ], [ 106.176895432000038, 11.320962337000026, 0.0 ], [ 106.176662544000067, 11.321028338000076, 0.0 ], [ 106.176683775000072, 11.32111065600003, 0.0 ], [ 106.176202241000055, 11.321242244000075, 0.0 ], [ 106.175307980000071, 11.32147500800005, 0.0 ], [ 106.173882235000065, 11.321868623000057, 0.0 ], [ 106.173151200000063, 11.322055601000045, 0.0 ], [ 106.172408736000079, 11.322277544000031, 0.0 ], [ 106.172392351000042, 11.322223131000044, 0.0 ], [ 106.172066529000062, 11.322271236000063, 0.0 ], [ 106.172003915000062, 11.322393817000034, 0.0 ], [ 106.170749002000036, 11.322754190000069, 0.0 ], [ 106.169260902000076, 11.323190757000077, 0.0 ], [ 106.167797954000036, 11.323592853000036, 0.0 ], [ 106.16719781900008, 11.323758201000032, 0.0 ], [ 106.166644258000076, 11.323928040000055, 0.0 ], [ 106.165445778000048, 11.324283892000039, 0.0 ], [ 106.164620150000076, 11.324505855000041, 0.0 ], [ 106.164586999000051, 11.324348734000068, 0.0 ], [ 106.164376689000051, 11.324364366000054, 0.0 ], [ 106.164387117000047, 11.324568503000023, 0.0 ], [ 106.163529184000083, 11.324796667000044, 0.0 ], [ 106.162193881000064, 11.32513823000005, 0.0 ], [ 106.161420533000069, 11.325337506000039, 0.0 ], [ 106.160209116000033, 11.325663839000072, 0.0 ], [ 106.158739548000085, 11.326019247000033, 0.0 ], [ 106.157400654000071, 11.326330376000044, 0.0 ], [ 106.156647717000055, 11.326503941000055, 0.0 ], [ 106.156002540000088, 11.326656693000075, 0.0 ], [ 106.155134884000063, 11.326944742000023, 0.0 ], [ 106.154630080000061, 11.327139860000045, 0.0 ], [ 106.154539806000059, 11.327041509000026, 0.0 ], [ 106.154235317000087, 11.327151896000032, 0.0 ], [ 106.154253808000078, 11.327260419000027, 0.0 ], [ 106.153659270000048, 11.327444597000067, 0.0 ], [ 106.15287733100007, 11.32768720200005, 0.0 ], [ 106.152192032000073, 11.327898800000071, 0.0 ], [ 106.15213628500004, 11.327816305000056, 0.0 ], [ 106.152067116000069, 11.327848885000037, 0.0 ], [ 106.152082294000081, 11.327932227000076, 0.0 ], [ 106.151812655000072, 11.328015351000033, 0.0 ], [ 106.151617857000076, 11.328075894000051, 0.0 ], [ 106.151080730000047, 11.32824604800004, 0.0 ], [ 106.150259055000049, 11.328504157000054, 0.0 ], [ 106.149932076000084, 11.328613165000036, 0.0 ], [ 106.14977054600007, 11.328707302000055, 0.0 ], [ 106.149635552000063, 11.328854336000063, 0.0 ], [ 106.149492470000041, 11.329065879000041, 0.0 ], [ 106.149278949000063, 11.32941846500006, 0.0 ], [ 106.148749358000089, 11.330329136000046, 0.0 ], [ 106.148487491000083, 11.330714627000077, 0.0 ], [ 106.147902067000075, 11.331566720000069, 0.0 ], [ 106.147268249000035, 11.332495436000045, 0.0 ], [ 106.146862313000042, 11.33310898600007, 0.0 ], [ 106.146536551000054, 11.333630142000061, 0.0 ], [ 106.146333048000088, 11.333957916000031, 0.0 ], [ 106.145703397000034, 11.334927339000046, 0.0 ], [ 106.14529747000006, 11.335547500000075, 0.0 ], [ 106.145060295000064, 11.335914003000028, 0.0 ], [ 106.144590956000059, 11.336641301000043, 0.0 ], [ 106.144242595000037, 11.337144918000035, 0.0 ], [ 106.143936561000032, 11.337631769000041, 0.0 ], [ 106.143739855000035, 11.337918571000046, 0.0 ], [ 106.143658505000076, 11.338012845000037, 0.0 ], [ 106.143556554000043, 11.338108207000062, 0.0 ], [ 106.143389166000077, 11.338241158000073, 0.0 ], [ 106.142840730000046, 11.338627229000053, 0.0 ], [ 106.14258467500008, 11.338820512000041, 0.0 ], [ 106.14246739500004, 11.338792434000027, 0.0 ], [ 106.142261350000069, 11.338958597000044, 0.0 ], [ 106.142328120000059, 11.339014435000024, 0.0 ], [ 106.142319741000051, 11.339020764000054, 0.0 ], [ 106.141832081000075, 11.339495606000071, 0.0 ], [ 106.14085179500006, 11.340405285000031, 0.0 ], [ 106.139801757000043, 11.341378828000074, 0.0 ], [ 106.138997655000082, 11.342147908000072, 0.0 ], [ 106.138335673000086, 11.342646959000035, 0.0 ], [ 106.137449845000049, 11.343236982000064, 0.0 ], [ 106.137037748000068, 11.344079588000056, 0.0 ], [ 106.136743339000077, 11.344955455000047, 0.0 ], [ 106.136492745000055, 11.345501009000031, 0.0 ], [ 106.136026170000036, 11.346619830000066, 0.0 ], [ 106.135977815000047, 11.346723863000022, 0.0 ], [ 106.13588221200007, 11.346668437000062, 0.0 ], [ 106.135821108000073, 11.346823154000049, 0.0 ], [ 106.135907261000057, 11.346875656000066, 0.0 ], [ 106.135651998000071, 11.347424843000056, 0.0 ], [ 106.135332813000048, 11.348133486000052, 0.0 ], [ 106.134849397000039, 11.349057967000022, 0.0 ], [ 106.134477576000052, 11.34987697300005, 0.0 ], [ 106.134211505000053, 11.350392888000044, 0.0 ], [ 106.13369141000004, 11.351546409000036, 0.0 ], [ 106.132945924000069, 11.353069350000055, 0.0 ], [ 106.132524209000053, 11.353965878000054, 0.0 ], [ 106.132137541000077, 11.354742137000073, 0.0 ], [ 106.132030617000055, 11.354716409000048, 0.0 ], [ 106.131950060000065, 11.354880490000028, 0.0 ], [ 106.132039814000052, 11.354955872000062, 0.0 ], [ 106.131422058000055, 11.356236612000032, 0.0 ], [ 106.130981918000089, 11.357150103000038, 0.0 ], [ 106.130566747000046, 11.357551949000026, 0.0 ], [ 106.129240773000049, 11.358736901000043, 0.0 ], [ 106.128441484000064, 11.359404839000035, 0.0 ], [ 106.127545874000077, 11.360172308000074, 0.0 ], [ 106.126915114000042, 11.360777850000034, 0.0 ], [ 106.126634510000088, 11.361056229000042, 0.0 ], [ 106.125412461000053, 11.362244082000075, 0.0 ], [ 106.124540366000076, 11.363084148000041, 0.0 ], [ 106.124324664000085, 11.363296476000073, 0.0 ], [ 106.123467523000045, 11.364069710000024, 0.0 ], [ 106.122967396000035, 11.364615351000054, 0.0 ], [ 106.122679764000054, 11.365180675000033, 0.0 ], [ 106.121894798000085, 11.366719911000075, 0.0 ], [ 106.121723827000039, 11.367059579000056, 0.0 ], [ 106.121451458000081, 11.367593246000069, 0.0 ], [ 106.120834437000042, 11.368805389000045, 0.0 ], [ 106.120512344000076, 11.369439551000028, 0.0 ], [ 106.120450358000085, 11.369365216000062, 0.0 ], [ 106.120328517000075, 11.36957437500007, 0.0 ], [ 106.12039640900008, 11.369636951000075, 0.0 ], [ 106.120023470000035, 11.370261002000063, 0.0 ], [ 106.11968612000004, 11.370911119000027, 0.0 ], [ 106.119019674000072, 11.372165990000042, 0.0 ], [ 106.11876082200007, 11.372668747000034, 0.0 ], [ 106.118603949000033, 11.372967552000034, 0.0 ], [ 106.118518442000038, 11.372916092000025, 0.0 ], [ 106.118447045000039, 11.373052209000036, 0.0 ], [ 106.118536288000087, 11.373096430000032, 0.0 ], [ 106.117866219000064, 11.374378205000028, 0.0 ], [ 106.117193797000084, 11.375647739000044, 0.0 ], [ 106.117064135000078, 11.375876438000034, 0.0 ], [ 106.116964952000046, 11.376055629000064, 0.0 ], [ 106.116818582000064, 11.376050785000075, 0.0 ], [ 106.116699200000085, 11.376340851000066, 0.0 ], [ 106.116791857000067, 11.376368352000043, 0.0 ], [ 106.116047928000057, 11.377863982000065, 0.0 ], [ 106.115826226000081, 11.37829866800007, 0.0 ], [ 106.115323777000071, 11.379155515000036, 0.0 ], [ 106.11480673300008, 11.380263365000076, 0.0 ], [ 106.114117764000071, 11.381520063000039, 0.0 ], [ 106.113738699000066, 11.382320851000031, 0.0 ], [ 106.113623448000055, 11.382532059000027, 0.0 ], [ 106.113519028000042, 11.382462710000027, 0.0 ], [ 106.113462108000078, 11.382576957000026, 0.0 ], [ 106.113571634000039, 11.382626732000062, 0.0 ], [ 106.113040500000068, 11.383596557000033, 0.0 ], [ 106.112866850000046, 11.383913283000027, 0.0 ], [ 106.112276390000034, 11.385080028000061, 0.0 ], [ 106.112038857000073, 11.385525393000023, 0.0 ], [ 106.111725046000061, 11.386106686000062, 0.0 ], [ 106.111193928000034, 11.387067611000077, 0.0 ], [ 106.11110732800006, 11.387037054000075, 0.0 ], [ 106.110993099000041, 11.387278947000027, 0.0 ], [ 106.111066493000067, 11.387343444000066, 0.0 ], [ 106.110801319000075, 11.387936470000056, 0.0 ], [ 106.110559669000054, 11.388381950000053, 0.0 ], [ 106.110011102000044, 11.389418878000072, 0.0 ], [ 106.109297813000069, 11.390784999000061, 0.0 ], [ 106.108669339000073, 11.392003852000073, 0.0 ], [ 106.108277680000072, 11.392754595000042, 0.0 ], [ 106.10798014900007, 11.39331093900006, 0.0 ], [ 106.107424863000062, 11.394338150000067, 0.0 ], [ 106.106726293000065, 11.395584091000046, 0.0 ], [ 106.106496271000083, 11.395832435000045, 0.0 ], [ 106.106170814000052, 11.396025690000045, 0.0 ], [ 106.105575780000038, 11.396167398000046, 0.0 ], [ 106.104872302000047, 11.396314319000055, 0.0 ], [ 106.104042253000046, 11.396517397000025, 0.0 ], [ 106.103222603000063, 11.396663993000061, 0.0 ], [ 106.101687622000043, 11.397022653000022, 0.0 ], [ 106.100452550000057, 11.397358521000058, 0.0 ], [ 106.099109943000087, 11.397611184000027, 0.0 ], [ 106.098739800000033, 11.397688560000063, 0.0 ], [ 106.097852961000058, 11.397913137000046, 0.0 ], [ 106.097189677000074, 11.398238172000049, 0.0 ], [ 106.096924792000038, 11.39841459400003, 0.0 ], [ 106.096720383000047, 11.398597269000049, 0.0 ], [ 106.095869543000049, 11.399361074000069, 0.0 ], [ 106.095168687000069, 11.400021610000067, 0.0 ], [ 106.09478508400008, 11.400385792000066, 0.0 ], [ 106.094124847000046, 11.400990571000023, 0.0 ], [ 106.093490257000042, 11.401587187000075, 0.0 ], [ 106.092886164000049, 11.402118486000063, 0.0 ], [ 106.092020174000083, 11.402778584000032, 0.0 ], [ 106.091104595000047, 11.403638999000066, 0.0 ], [ 106.090723082000068, 11.404011483000033, 0.0 ], [ 106.090404204000038, 11.404280830000062, 0.0 ], [ 106.090021960000058, 11.404629553000063, 0.0 ], [ 106.089342069000054, 11.405320546000041, 0.0 ], [ 106.088837698000077, 11.405771898000069, 0.0 ], [ 106.088220392000039, 11.406289120000054, 0.0 ], [ 106.087726560000078, 11.406758774000025, 0.0 ], [ 106.087102114000061, 11.407354887000054, 0.0 ], [ 106.086670980000065, 11.407746846000066, 0.0 ], [ 106.086219370000038, 11.408128232000024, 0.0 ], [ 106.085869148000086, 11.40845306500006, 0.0 ], [ 106.085402186000067, 11.408895367000071, 0.0 ], [ 106.084899547000077, 11.409352135000063, 0.0 ], [ 106.084366983000052, 11.409828271000038, 0.0 ], [ 106.083770536000088, 11.410366064000073, 0.0 ], [ 106.08275526500006, 11.411229143000071, 0.0 ], [ 106.082684147000066, 11.411149033000072, 0.0 ], [ 106.08249257500006, 11.411312394000049, 0.0 ], [ 106.082578778000084, 11.411404188000063, 0.0 ], [ 106.081693589000054, 11.41223959000007, 0.0 ], [ 106.081541414000071, 11.412390970000047, 0.0 ], [ 106.081300540000086, 11.412413922000042, 0.0 ], [ 106.080706902000088, 11.41247123200003, 0.0 ], [ 106.079920590000086, 11.412491825000075, 0.0 ], [ 106.078872852000075, 11.412498321000044, 0.0 ], [ 106.078072301000077, 11.412487462000058, 0.0 ], [ 106.077009104000069, 11.412603692000062, 0.0 ], [ 106.07571725400004, 11.412628877000031, 0.0 ], [ 106.074330393000082, 11.412707698000077, 0.0 ], [ 106.073068195000076, 11.412778432000039, 0.0 ], [ 106.072400586000072, 11.412810744000069, 0.0 ], [ 106.070871382000064, 11.412821629000064, 0.0 ], [ 106.069485492000069, 11.412942352000073, 0.0 ], [ 106.068804629000056, 11.412950501000068, 0.0 ], [ 106.068650770000033, 11.412950407000039, 0.0 ], [ 106.068628363000073, 11.412820130000057, 0.0 ], [ 106.068421637000085, 11.412822125000048, 0.0 ], [ 106.068423834000043, 11.412950269000021, 0.0 ], [ 106.067888284000048, 11.412949942000068, 0.0 ], [ 106.066688147000036, 11.412985666000054, 0.0 ], [ 106.066056329000048, 11.413013103000026, 0.0 ], [ 106.065163736000045, 11.413056881000045, 0.0 ], [ 106.064009243000044, 11.413090952000061, 0.0 ], [ 106.063307672000064, 11.41309814300007, 0.0 ], [ 106.062642134000043, 11.413120609000032, 0.0 ], [ 106.061268769000037, 11.413179471000035, 0.0 ], [ 106.06012770600006, 11.413212164000072, 0.0 ], [ 106.059301325000035, 11.41326448600006, 0.0 ], [ 106.058309279000071, 11.413305322000042, 0.0 ], [ 106.057815080000069, 11.413321382000049, 0.0 ], [ 106.05700269600004, 11.413345550000031, 0.0 ], [ 106.056655526000043, 11.413361578000035, 0.0 ], [ 106.055598172000089, 11.41340978900007, 0.0 ], [ 106.054628084000058, 11.413447913000027, 0.0 ], [ 106.054152857000076, 11.413472209000076, 0.0 ], [ 106.053142932000071, 11.413500856000041, 0.0 ], [ 106.052703973000064, 11.413515461000031, 0.0 ], [ 106.052693515000044, 11.413395855000033, 0.0 ], [ 106.052157174000058, 11.413416184000027, 0.0 ], [ 106.052145963000044, 11.413532631000066, 0.0 ], [ 106.051415043000077, 11.413549745000068, 0.0 ], [ 106.049953444000039, 11.413609454000039, 0.0 ], [ 106.049572677000072, 11.413624261000052, 0.0 ], [ 106.048770301000047, 11.413649314000054, 0.0 ], [ 106.047733848000064, 11.413692775000072, 0.0 ], [ 106.046826544000055, 11.413731077000023, 0.0 ], [ 106.046242020000079, 11.413750432000029, 0.0 ], [ 106.044727314000056, 11.413819372000034, 0.0 ], [ 106.043418199000087, 11.413871713000049, 0.0 ], [ 106.043164518000083, 11.413880548000066, 0.0 ], [ 106.041779738000059, 11.413942765000058, 0.0 ], [ 106.040650416000062, 11.413986227000066, 0.0 ], [ 106.040415200000041, 11.413990698000077, 0.0 ], [ 106.039494559000048, 11.414051097000026, 0.0 ], [ 106.038502731000051, 11.414119929000037, 0.0 ], [ 106.038120279000054, 11.414124540000046, 0.0 ], [ 106.037979647000043, 11.413993848000075, 0.0 ], [ 106.037853031000054, 11.413912047000053, 0.0 ], [ 106.037646426000038, 11.413887508000073, 0.0 ], [ 106.037549694000063, 11.413876498000036, 0.0 ], [ 106.03755198500005, 11.414145115000053, 0.0 ], [ 106.036788842000078, 11.414129099000036, 0.0 ], [ 106.035817416000043, 11.414137068000059, 0.0 ], [ 106.034864227000071, 11.414170818000059, 0.0 ], [ 106.033458845000041, 11.414228689000026, 0.0 ], [ 106.032233377000068, 11.414279201000056, 0.0 ], [ 106.031025333000059, 11.414312662000043, 0.0 ], [ 106.029889812000079, 11.414365967000037, 0.0 ], [ 106.028221751000046, 11.414426744000025, 0.0 ], [ 106.027597504000084, 11.414465754000048, 0.0 ], [ 106.026709031000053, 11.41450655400007, 0.0 ], [ 106.025703672000077, 11.414521403000037, 0.0 ], [ 106.024849891000088, 11.414585607000049, 0.0 ], [ 106.024247484000057, 11.414612345000023, 0.0 ], [ 106.023281009000073, 11.414628291000042, 0.0 ], [ 106.023261038000044, 11.414522487000056, 0.0 ], [ 106.022987727000043, 11.414533013000039, 0.0 ], [ 106.023000491000062, 11.414629846000025, 0.0 ], [ 106.02239454100004, 11.414653820000069, 0.0 ], [ 106.021447975000058, 11.414703419000034, 0.0 ], [ 106.020008983000082, 11.414753663000056, 0.0 ], [ 106.018733745000077, 11.414817343000038, 0.0 ], [ 106.018441209000059, 11.414830667000047, 0.0 ], [ 106.017526862000068, 11.414901150000048, 0.0 ], [ 106.016961119000086, 11.414924811000049, 0.0 ], [ 106.01585857200007, 11.41500389600003, 0.0 ], [ 106.015758343000073, 11.414844458000061, 0.0 ], [ 106.015501703000041, 11.414875602000052, 0.0 ], [ 106.01554012400004, 11.415017387000034, 0.0 ], [ 106.014728294000065, 11.415042767000045, 0.0 ], [ 106.013214232000053, 11.415094944000032, 0.0 ], [ 106.011486319000085, 11.41513014700007, 0.0 ], [ 106.010281836000047, 11.41516148200003, 0.0 ], [ 106.008600766000086, 11.415226963000066, 0.0 ], [ 106.007576226000083, 11.415290711000068, 0.0 ], [ 106.006348089000085, 11.415337377000071, 0.0 ], [ 106.005746206000083, 11.415370076000045, 0.0 ], [ 106.005657278000058, 11.415371468000046, 0.0 ], [ 106.005646330000047, 11.415238443000021, 0.0 ], [ 106.005414553000037, 11.41524546100004, 0.0 ], [ 106.005397085000084, 11.415379095000048, 0.0 ], [ 106.00491214200008, 11.415406304000044, 0.0 ], [ 106.003770673000076, 11.415454597000064, 0.0 ], [ 106.002546624000047, 11.415502949000029, 0.0 ], [ 106.001289798000073, 11.415584007000064, 0.0 ], [ 106.000121808000074, 11.415608982000037, 0.0 ], [ 105.99829728800006, 11.41564887100003, 0.0 ], [ 105.997340963000056, 11.415667203000055, 0.0 ], [ 105.996204871000089, 11.415713426000025, 0.0 ], [ 105.995280195000078, 11.415773627000021, 0.0 ], [ 105.995261288000052, 11.415650542000037, 0.0 ], [ 105.995081815000049, 11.415664219000064, 0.0 ], [ 105.995085970000048, 11.415757156000041, 0.0 ], [ 105.993831146000048, 11.415816947000053, 0.0 ], [ 105.99237067100006, 11.41587110200004, 0.0 ], [ 105.990946227000052, 11.415896353000051, 0.0 ], [ 105.989504151000062, 11.416017956000076, 0.0 ], [ 105.988331653000046, 11.416083467000021, 0.0 ], [ 105.988229371000045, 11.416087440000069, 0.0 ], [ 105.987006432000044, 11.416129554000065, 0.0 ], [ 105.985810993000086, 11.416172264000068, 0.0 ], [ 105.985479051000084, 11.416186810000056, 0.0 ], [ 105.984578488000068, 11.416222101000074, 0.0 ], [ 105.983305121000058, 11.416311049000058, 0.0 ], [ 105.983299636000083, 11.416257951000034, 0.0 ], [ 105.983106558000088, 11.416272192000065, 0.0 ], [ 105.983109476000038, 11.416322164000064, 0.0 ], [ 105.982306842000071, 11.41634171100003, 0.0 ], [ 105.981294013000081, 11.416397501000063, 0.0 ], [ 105.980396473000042, 11.416446428000029, 0.0 ], [ 105.979877526000053, 11.416476849000048, 0.0 ], [ 105.979243606000068, 11.416456405000076, 0.0 ] ] ] } },
{ "type": "Feature", "properties": { "OID_": 0, "Name": "Polyline_001", "FolderPath": "KENH TAY.kml/Entity Features", "SymbolID": 0, "AltMode": -1, "Base": 0.0, "Clamped": 0, "Extruded": 0, "Snippet": null, "PopupInfo": "HLBV", "Shape_Leng": 0.1253334947 }, "geometry": { "type": "MultiLineString", "coordinates": [ [ [ 106.250077039000075, 11.370156033000058, 0.0 ], [ 106.249714974000085, 11.370078367000076, 0.0 ], [ 106.24885077600004, 11.370082986000057, 0.0 ], [ 106.248655356000086, 11.370037398000022, 0.0 ], [ 106.248203360000048, 11.369924448000063, 0.0 ], [ 106.247404171000085, 11.369649020000054, 0.0 ], [ 106.246903315000054, 11.369476331000044, 0.0 ], [ 106.246125516000063, 11.369128156000045, 0.0 ], [ 106.244881537000083, 11.368576615000052, 0.0 ], [ 106.243631483000058, 11.36801252600003, 0.0 ], [ 106.242413986000088, 11.367434165000077, 0.0 ], [ 106.242153943000062, 11.367328566000026, 0.0 ], [ 106.241819271000054, 11.367169678000039, 0.0 ], [ 106.241468509000072, 11.366941859000065, 0.0 ], [ 106.241188906000048, 11.366780720000065, 0.0 ], [ 106.240592599000081, 11.366451396000059, 0.0 ], [ 106.240485809000063, 11.366401071000041, 0.0 ], [ 106.239920892000043, 11.366135396000061, 0.0 ], [ 106.23930553200006, 11.365864044000034, 0.0 ], [ 106.239205540000057, 11.365805367000064, 0.0 ], [ 106.238647548000074, 11.365485216000025, 0.0 ], [ 106.23815965700004, 11.365192328000035, 0.0 ], [ 106.23781490500005, 11.36495627100004, 0.0 ], [ 106.237618429000065, 11.364774951000072, 0.0 ], [ 106.237236178000046, 11.364345848000028, 0.0 ], [ 106.236926748000087, 11.363927611000065, 0.0 ], [ 106.236800765000055, 11.363691987000038, 0.0 ], [ 106.236482165000041, 11.362375806000045, 0.0 ], [ 106.236146796000071, 11.360832246000029, 0.0 ], [ 106.235900973000071, 11.359701292000068, 0.0 ], [ 106.235688939000056, 11.358705996000026, 0.0 ], [ 106.235630499000081, 11.358406976000026, 0.0 ], [ 106.23573848400008, 11.358386784000061, 0.0 ], [ 106.235710528000084, 11.358233017000032, 0.0 ], [ 106.235600869000052, 11.358253813000033, 0.0 ], [ 106.235399226000084, 11.357281264000051, 0.0 ], [ 106.235113020000085, 11.355955073000075, 0.0 ], [ 106.234987396000065, 11.355380926000066, 0.0 ], [ 106.23480911300004, 11.354620048000072, 0.0 ], [ 106.234643792000043, 11.35385511800007, 0.0 ], [ 106.234501046000048, 11.353201283000033, 0.0 ], [ 106.23424791900004, 11.351977761000057, 0.0 ], [ 106.234097114000065, 11.351320547000057, 0.0 ], [ 106.233951188000049, 11.350543498000036, 0.0 ], [ 106.233715955000037, 11.349461888000064, 0.0 ], [ 106.233623840000064, 11.349068484000043, 0.0 ], [ 106.233418999000037, 11.347991006000029, 0.0 ], [ 106.233143032000044, 11.34666578100007, 0.0 ], [ 106.232873453000082, 11.345337221000023, 0.0 ], [ 106.232781410000086, 11.344884598000021, 0.0 ], [ 106.232572505000064, 11.343999689000043, 0.0 ], [ 106.232361796000077, 11.343117676000077, 0.0 ], [ 106.232269259000077, 11.34269026000004, 0.0 ], [ 106.232115564000082, 11.341916083000058, 0.0 ], [ 106.232058149000068, 11.34159894000004, 0.0 ], [ 106.232020940000041, 11.341356818000065, 0.0 ], [ 106.231949956000051, 11.340982208000071, 0.0 ], [ 106.231777804000046, 11.340405915000076, 0.0 ], [ 106.231691631000047, 11.340041667000037, 0.0 ], [ 106.23161904400007, 11.339719241000068, 0.0 ], [ 106.231565312000043, 11.33936923400006, 0.0 ], [ 106.231497253000043, 11.339063422000038, 0.0 ], [ 106.231429510000055, 11.338711133000061, 0.0 ], [ 106.231181007000032, 11.337377654000022, 0.0 ], [ 106.230998701000033, 11.336493681000036, 0.0 ], [ 106.230903477000084, 11.336075348000065, 0.0 ], [ 106.230820050000034, 11.33578217400003, 0.0 ], [ 106.230738397000039, 11.335604838000052, 0.0 ], [ 106.230619001000036, 11.335447693000049, 0.0 ], [ 106.230382526000085, 11.335134735000054, 0.0 ], [ 106.230360592000068, 11.335106591000056, 0.0 ], [ 106.230431039000052, 11.335049459000061, 0.0 ], [ 106.230222389000062, 11.334774803000073, 0.0 ], [ 106.23013628800004, 11.334829819000049, 0.0 ], [ 106.229938119000053, 11.334584689000053, 0.0 ], [ 106.229437919000077, 11.333989646000077, 0.0 ], [ 106.229266220000056, 11.333782618000043, 0.0 ], [ 106.228597250000064, 11.332918215000063, 0.0 ], [ 106.228358888000059, 11.332627598000045, 0.0 ], [ 106.228123646000086, 11.332356154000024, 0.0 ], [ 106.227728695000053, 11.331872670000052, 0.0 ], [ 106.226851315000033, 11.330823700000053, 0.0 ], [ 106.226320469000086, 11.330186746000038, 0.0 ], [ 106.225984104000077, 11.329772106000064, 0.0 ], [ 106.225134241000035, 11.328706301000068, 0.0 ], [ 106.224684506000074, 11.328130111000064, 0.0 ], [ 106.224272126000074, 11.327650603000052, 0.0 ], [ 106.223378462000085, 11.326559802000077, 0.0 ], [ 106.223213218000069, 11.326347018000035, 0.0 ], [ 106.222547339000073, 11.325540058000058, 0.0 ], [ 106.222124448000045, 11.325038654000025, 0.0 ], [ 106.221687080000038, 11.324482529000022, 0.0 ], [ 106.220846336000079, 11.323471526000048, 0.0 ], [ 106.22031398200005, 11.322799657000076, 0.0 ], [ 106.219972533000032, 11.322370567000064, 0.0 ], [ 106.219090647000087, 11.321276721000061, 0.0 ], [ 106.21870877200007, 11.32081551300007, 0.0 ], [ 106.218258835000086, 11.32024326800007, 0.0 ], [ 106.217753319000053, 11.319627809000053, 0.0 ], [ 106.217380095000067, 11.319201048000025, 0.0 ], [ 106.217076690000056, 11.318846260000043, 0.0 ], [ 106.216523964000032, 11.318145299000037, 0.0 ], [ 106.215668007000033, 11.317079540000066, 0.0 ], [ 106.214708251000047, 11.316038005000053, 0.0 ], [ 106.213860386000079, 11.31500326400004, 0.0 ], [ 106.213400076000084, 11.314437550000036, 0.0 ], [ 106.212909724000042, 11.313842012000066, 0.0 ], [ 106.212165449000054, 11.312932598000032, 0.0 ], [ 106.21187376000006, 11.312498531000074, 0.0 ], [ 106.211749186000077, 11.312289949000046, 0.0 ], [ 106.211665120000077, 11.310132567000039, 0.0 ], [ 106.211607056000048, 11.309044989000029, 0.0 ], [ 106.211562639000078, 11.308021226000051, 0.0 ], [ 106.21154808600005, 11.307647984000027, 0.0 ], [ 106.211401944000045, 11.305519530000026, 0.0 ], [ 106.211344567000083, 11.304611686000044, 0.0 ], [ 106.211313078000046, 11.303233507000073, 0.0 ], [ 106.211237920000087, 11.301420050000047, 0.0 ], [ 106.211138278000078, 11.299560469000028, 0.0 ], [ 106.211138264000056, 11.299560076000034, 0.0 ], [ 106.211385441000061, 11.299519983000039, 0.0 ], [ 106.211383246000082, 11.299371093000047, 0.0 ], [ 106.211132133000035, 11.299387209000031, 0.0 ], [ 106.211086649000038, 11.298046824000039, 0.0 ], [ 106.211056452000037, 11.297062578000066, 0.0 ], [ 106.211030856000036, 11.296297860000038, 0.0 ], [ 106.210958333000065, 11.295429143000035, 0.0 ], [ 106.210960206000038, 11.294513240000072, 0.0 ], [ 106.210884099000054, 11.293817021000052, 0.0 ], [ 106.210857565000083, 11.29311210700007, 0.0 ], [ 106.210833885000056, 11.292441066000038, 0.0 ], [ 106.210799830000042, 11.291052456000045, 0.0 ], [ 106.210756872000047, 11.289959186000033, 0.0 ], [ 106.21066165600007, 11.288048482000022, 0.0 ], [ 106.210570214000086, 11.285578262000058, 0.0 ], [ 106.210476923000044, 11.28277926100003, 0.0 ], [ 106.210423487000071, 11.282015001000048, 0.0 ], [ 106.210280756000088, 11.280668776000027, 0.0 ], [ 106.210137362000069, 11.278746315000035, 0.0 ], [ 106.210071118000087, 11.277457417000051, 0.0 ], [ 106.210016593000034, 11.275733914000057, 0.0 ], [ 106.209931682000047, 11.274366857000075, 0.0 ], [ 106.20988725400008, 11.273751037000068, 0.0 ], [ 106.20986812600006, 11.272603564000065, 0.0 ], [ 106.209820284000045, 11.271978239000077, 0.0 ], [ 106.209845931000075, 11.271382596000024, 0.0 ], [ 106.209831969000049, 11.27086356600006, 0.0 ], [ 106.209770958000036, 11.269874344000073, 0.0 ], [ 106.209710329000075, 11.269207317000053, 0.0 ], [ 106.209540802000049, 11.268422189000034, 0.0 ], [ 106.209428372000048, 11.267671269000061, 0.0 ], [ 106.209276827000053, 11.267102008000052, 0.0 ], [ 106.209159114000045, 11.266137442000058, 0.0 ], [ 106.209077314000069, 11.26532908300004, 0.0 ], [ 106.208945028000073, 11.264714606000041, 0.0 ], [ 106.208747979000066, 11.263608779000037, 0.0 ], [ 106.208697271000062, 11.26325021100007, 0.0 ], [ 106.208537883000076, 11.262366218000068, 0.0 ], [ 106.208478319000051, 11.262054052000053, 0.0 ], [ 106.208457947000056, 11.261910554000053, 0.0 ] ] ] } },
{ "type": "Feature", "properties": { "OID_": 0, "Name": "Polyline_002", "FolderPath": "KENH TAY.kml/Entity Features", "SymbolID": 1, "AltMode": -1, "Base": 0.0, "Clamped": 0, "Extruded": 0, "Snippet": null, "PopupInfo": "HLBV", "Shape_Leng": 0.00452417781 }, "geometry": { "type": "MultiLineString", "coordinates": [ [ [ 106.250077039000075, 11.370156033000058, 0.0 ], [ 106.25203590600006, 11.370868530000052, 0.0 ], [ 106.252774782000074, 11.371176931000036, 0.0 ], [ 106.253067934000057, 11.371450005000042, 0.0 ], [ 106.253206173000081, 11.37156565600003, 0.0 ], [ 106.253423252000061, 11.37168110600004, 0.0 ], [ 106.253486843000076, 11.371687100000031, 0.0 ], [ 106.253645565000056, 11.37165912100005, 0.0 ], [ 106.253907279000089, 11.371757063000075, 0.0 ], [ 106.254175391000047, 11.371908408000024, 0.0 ] ] ] } }
]
}
