{
"type": "FeatureCollection",
"name": "KT_Trambom",
"crs": { "type": "name", "properties": { "name": "urn:ogc:def:crs:OGC:1.3:CRS84" } },
"features": [
{ "type": "Feature", "properties": { "title": "Trạm bơm TN6", "X": 615853.0, "Y": 1261930.0, "Vitri": "K30+050", "Ghichu": "Bờ hữu", "Chucnang": "Trạm bơm" }, "geometry": { "type": "Point", "coordinates": [ 106.061951303545854, 11.413655145487885, 0.0 ] } },
{ "type": "Feature", "properties": { "title": "Trạm bơm", "X": 634629.0, "Y": 1255350.0, "Vitri": "K3+411", "Ghichu": "Bờ hữu, tỉnh đầu tư kinh phí, tỉnh quản lý.", "Chucnang": "Trạm bơm" }, "geometry": { "type": "Point", "coordinates": [ 106.233776159143488, 11.353460855400307, 0.0 ] } }
]
}
